name,address,latitude,longitude
旧金沢市立野町小学校,金沢市野町３丁目11番１号,36.55282538,136.6481028
石川県立金沢中央高等学校,金沢市泉本町６丁目105番地,36.554056,136.638876
金沢市野町公民館,金沢市野町３丁目11番１号,36.55266036,136.6482128
金沢市立泉小学校,金沢市弥生１丁目26番１号,36.54972789,136.6463718
金沢市立泉中学校,金沢市弥生１丁目26番１号,36.54908927,136.6463824
金沢市弥生公民館,金沢市弥生１丁目29番13号,36.54936094,136.6446655
弥生さくら公園,金沢市弥生１丁目753番２ほか,36.54908165,136.6443972
金沢市立中村町小学校,金沢市中村町26番12号,36.56086196,136.6420037
金沢市中村町公民館,金沢市中村町10番35号,36.55943517,136.6419275
神泉児童公園,金沢市神田２丁目27番地,36.55949675,136.6352498
神田町児童公園,金沢市神田１丁目271番地,36.56221646,136.6373807
中村町児童公園,金沢市中村町281番地,36.56118866,136.6441409
白菊町緑地,金沢市白菊町370番地１ほか,36.56001404,136.6465793
金沢市立十一屋小学校,金沢市十一屋町３番45号,36.5450108,136.6609902
金沢市立野田中学校,金沢市若草町１番23号,36.5441495,136.657608
いしかわ子ども交流センター,金沢市法島町11番８号,36.54596678,136.6633576
金沢市城南公民館,金沢市若草町22番12号,36.54172445,136.6612
金沢市老人福祉センター万寿苑,金沢市大桑町ヤ１番地４,36.52532371,136.6771646
つつじが丘児童公園,金沢市つつじが丘202番地,36.52746211,136.6789628
犀川緑地,金沢市涌波～普正寺町,36.53661266,136.6872551
西大桑町児童公園,金沢市西大桑町715番地ほか,36.54014038,136.6710197
平和町公園,金沢市平和町２丁目164番地,36.54119759,136.6652334
野田西公園,金沢市野田４丁目173番地,36.53390058,136.6630946
野田東公園,金沢市野田２丁目120番地,36.53585778,136.6694119
野田南広場,金沢市野田１丁目45番地,36.53186509,136.6726096
野田中央公園,金沢市野田１丁目176番地,36.53276842,136.6698635
金沢市立泉野小学校,金沢市緑が丘４番64号,36.54222617,136.6542223
石川県立金沢泉丘高等学校,金沢市泉野出町３丁目10番10号,36.538141,136.648931
石川県立金沢二水高等学校,金沢市緑が丘20番15号,36.54106419,136.6582053
金沢市営城南市民体育館,金沢市若草町１番60号,36.544331,136.656789
金沢市総合体育館,金沢市泉野出町３丁目８番１号,36.53994487,136.6502078
泉野出町第１公園,金沢市泉野出町２丁目1601番地,36.53743785,136.6509445
泉野出町第２児童公園,金沢市泉野出町１丁目2107番地,36.53936887,136.656177
金沢市立長坂台小学校,金沢市長坂３丁目14番１号,36.53498815,136.6573609
金沢大学人間社会学域学校教育学類附属高等学校,金沢市平和町１丁目１番15号,36.53871218,136.6641995
金沢大学人間社会学域学校教育学類附属小学校,金沢市平和町１丁目１番15号,36.53671885,136.665952
金沢大学人間社会学域学校教育学類附属中学校,金沢市平和町１丁目１番15号,36.53749571,136.6656569
泉野出町第３児童公園,金沢市泉野出町４丁目1533番地,36.53555012,136.6521944
大乗寺丘陵公園,金沢市長坂町ヲ135番地,36.5303992,136.6567988
長坂みはらし公園,金沢市長坂３丁目1521番地,36.5351129,136.6563848
長坂台児童公園,金沢市長坂台136番地,36.53239428,136.6526056
平和町第１児童公園,金沢市平和町３丁目419番地,36.53894813,136.6622215
金沢市立犀桜小学校（旧金沢市立新竪町小学校）,金沢市新竪町３丁目25番地,36.5500487,136.6618654
石川県立工業高等学校,金沢市本多町２丁目３番６号,36.55609278,136.6622834
遊学館高等学校,金沢市本多町２丁目２番３号,36.55548772,136.661214
金沢市新竪町公民館,金沢市鱗町62番地,36.55589341,136.6569
いしかわ四高記念公園,金沢市広坂２丁目,36.56313138,136.6555586
本多の森公園,金沢市出羽町ほか,36.558206,136.6621251
本多公園,金沢市本多町３丁目51番地１ほか,36.55912933,136.6606886
金沢市立城南中学校,金沢市城南１丁目24番１号,36.543669,136.674374
金沢市菊川町公民館,金沢市菊川２丁目３番３号,36.55134757,136.6599542
旧材木町小学校体育館,金沢市材木町13番12号,36.566764,136.668018
金沢市立杜の里小学校,金沢市若松町３丁目282番地,36.5573615,136.6864222
金沢市材木公民館,金沢市材木町13番11号,36.56692895,136.6675909
石川県青少年総合研修センター,金沢市常盤町212番地１,36.56553,136.676437
卯辰山公園,金沢市末広町、卯辰町、東御影町、豊国町、常盤町、観音町３丁目、鳴和町、子来町、東長江町及び鈴見町の各一部,36.56876506,136.6814519
郡家山公園,金沢市鈴見町郡家山1000番地,36.5598273,136.6858606
常盤町緑地,金沢市東御影町163番地１ほか,36.56806109,136.6739477
睦が丘公園,金沢市鈴見台４丁目174番地ほか,36.56391002,136.6895542
鈴見しょうぶ公園,金沢市もりの里３丁目1000番地,36.55968836,136.6838625
鈴見児童公園,金沢市鈴見台２丁目356番地,36.56203703,136.6868565
鈴見台第２児童公園,金沢市鈴見台４丁目43番地,36.56392254,136.6837875
金沢市立兼六小学校,金沢市兼六元町７番15号,36.56552732,136.66613
金沢市立兼六中学校,金沢市田井町12番12号,36.5595,136.680178
金沢市立小将町中学校,金沢市小将町１番15号,36.564333,136.664874
金沢大学人間社会学域学校教育学類附属特別支援学校,金沢市東兼六町２番10号,36.56272893,136.6660535
金沢市味噌蔵町公民館,金沢市兼六元町７番19号,36.56644534,136.6653046
金沢城公園,金沢市丸の内１番１号ほか,36.56775963,136.6597706
天神町緑地,金沢市天神町２丁目617番地１ほか,36.56033246,136.6744657
田井町第１児童公園,金沢市田井町273番地,36.56051664,136.6792105
天神しらうめ公園,金沢市天神町１丁目586番地,36.55836305,136.6773957
金沢市立中央小学校,金沢市長町１丁目10番35号,36.570021,136.650712
金沢市中央公民館長町館,金沢市長町２丁目２番43号,36.56317135,136.650077
金沢市長町公民館,金沢市長町２丁目２番16号,36.56335101,136.6492396
長町緑地,金沢市長町２丁目２番43号,36.5627614,136.6499541
金沢市松ヶ枝公民館,金沢市高岡町７番23号,36.56984623,136.6528536
近江町いちば館,金沢市青草町88番地,36.57151325,136.655908
金沢市文化ホール,金沢市高岡町15番１号,36.56661689,136.652371
松ヶ枝緑地,金沢市高岡町188番地２ほか,36.56962748,136.6527016
金沢市長土塀公民館,金沢市長町３丁目３番３号,36.56720591,136.6453501
金沢市長土塀青少年交流センター,金沢市長町３丁目３番３号,36.56704004,136.6453662
大和町防災拠点広場,金沢市大和町１番１号,36.56934947,136.6393514
金沢市営中央市民体育館,金沢市長町３丁目３番３号,36.56651068,136.6455649
穴水町児童公園,金沢市長土塀１丁目151番地ほか,36.568975,136.648137
神保緑地,金沢市三社町373番地11,36.5699537,136.642311
デイサービスセンター玉川苑,金沢市芳斉２丁目３番28号,36.57199978,136.6499908
金沢市芳斎公民館,金沢市芳斉２丁目３番29号,36.571991,136.649815
金沢市女性センター,金沢市三社町１番44号,36.57050711,136.6455484
玉川公園,金沢市玉川町11番３号,36.56907574,136.6508313
金沢市此花町公民館,金沢市此花町２番７号,36.57717463,136.6519152
此花町緑地,金沢市此花町149番地１,36.57736937,136.6522762
堀川新町公園,金沢市堀川新町70番地１ほか,36.58108288,136.6510406
金沢市立明成小学校,金沢市瓢箪町5番48号,36.57681177,136.6572885
金沢市瓢箪町公民館,金沢市彦三町２丁目10番５号,36.57577223,136.6573991
金沢市中央公民館彦三館,金沢市彦三町１丁目15番５号,36.57471418,136.6595586
金沢市立馬場小学校,金沢市東山３丁目９番30号,36.57469694,136.6654887
金沢市馬場公民館,金沢市東山３丁目９番35号,36.57444688,136.6650806
子来町さくら公園,金沢市子来町33番地,36.57223051,136.671725
子来町緑地,金沢市子来町２番地ほか,36.57264566,136.6694463
金沢市立浅野町小学校,金沢市京町35番１号,36.58208,136.658873
金沢市浅野町公民館,金沢市乙丸町甲161番地,36.586739,136.665312
元町第３児童公園,金沢市元町２丁目137番地ほか,36.58061602,136.6632017
浅野本町第２児童公園,金沢市浅野本町２丁目125番地,36.58426294,136.6608786
浅野本町第３児童公園,金沢市京町59番地,36.58447412,136.6576181
金沢市立森山町小学校,金沢市森山２丁目13番50号,36.57836528,136.6681871
石川県立金沢桜丘高等学校,金沢市大樋町16番１号,36.58336475,136.6789926
金沢市立鳴和中学校,金沢市鳴和２丁目10番60号,36.58673713,136.6714629
金沢市営城北市民体育館,金沢市鳴和２丁目10番44号,36.58749431,136.6699115
金沢市森山公民館,金沢市森山２丁目11番13号,36.5794096,136.6690429
金沢市鳴和台市民体育会館,金沢市鳴和台285番地,36.57702167,136.6792616
小金町公園,金沢市小金町183番地ほか,36.58322889,136.6712046
鳴和憩いの広場,金沢市鳴和町タ175番地ほか,36.58020062,136.6781863
鳴和台桜丘公園,金沢市鳴和台20番地,36.58088364,136.6790823
鳴和台市民公園,金沢市鳴和台285番地ほか,36.57705301,136.6800054
金沢市立小坂小学校,金沢市小坂町中142番地,36.59010151,136.6776713
星稜高等学校,金沢市小坂町南206番地,36.58495928,136.6824429
金沢市立北鳴中学校,金沢市小坂町北95番地,36.59512422,136.6764992
金沢星稜大学,金沢市御所町丑10番地１,36.58360241,136.6820866
金沢市小坂公民館,金沢市小坂町北312番地,36.593443,136.675689
金沢市立城北児童会館,金沢市小坂町西8番地11,36.58957268,136.6718964
金沢市営東金沢スポーツ広場,金沢市三池町240番地１,36.59359632,136.6707812
三池はすのみ公園,金沢市三池栄町201番地,36.59632169,136.6729225
三池はすの里公園,金沢市三池栄町346番地,36.59741347,136.6689094
東金沢駅前かがやき公園,金沢市三池町197番地53,36.59305834,136.6705572
小坂白蓮公園,金沢市小坂町南589番地,36.58583923,136.6792725
城北中央公園,金沢市小坂町西８番地６ほか,36.58981564,136.6737764
神宮寺運動公園,金沢市神宮寺３丁目123番地ほか,36.5866332,136.6664608
神宮寺桜児童公園,金沢市神宮寺２丁目326番地ほか,36.58741201,136.6681883
神谷内児童公園,金沢市神谷内町チ204番地１,36.59863774,136.6890238
金沢市立千坂小学校,金沢市千木１丁目125番地,36.60575006,136.6753219
金沢市千坂公民館,金沢市千木１丁目119番地,36.60578084,136.6741686
横枕はすの里公園,金沢市横枕町ハ80番地１,36.60704174,136.6775353
金市やすらぎ公園,金沢市金市町ニ12番地１,36.61064277,136.6817193
荒屋八幡公園,金沢市荒屋１丁目96番地,36.61628941,136.6852804
千木日吉の森公園,金沢市千木町カ66番地ほか,36.61093626,136.6675655
東インター公園,金沢市疋田３丁目65番地,36.60477,136.67284
疋田中央公園,金沢市疋田１丁目187番地,36.60204227,136.6730641
福久かねと公園,金沢市福久２丁目131番地,36.61934226,136.6819637
福久町わんぱく公園,金沢市福久町ヲ121番地ほか,36.61422642,136.6786022
福久中央公園,金沢市福久１丁目78番地,36.61722454,136.6793594
福久南ほたる公園,金沢市福久町ヘ47番地１,36.61116213,136.6791312
法光寺ふれあい公園,金沢市法光寺町124番地１ほか,36.60458049,136.6819751
金沢市営法光寺運動広場,金沢市法光寺町ト11番地２,36.60181175,136.6848825
金沢市立夕日寺小学校,金沢市東長江町に17番地,36.57756841,136.6923801
卯辰山公園健康交流センター千寿閣,金沢市東長江町辺２番地１,36.56753936,136.6892639
金沢市夕日寺公民館,金沢市夕日寺町ロ35番地,36.57264161,136.705598
奥卯辰山健民公園,金沢市若松町、東長江町ほか,36.56005669,136.6976496
御所かつら公園,金沢市御所町１丁目42番地,36.58090367,136.6924063
御所さくら公園,金沢市御所町１丁目407番地,36.5803783,136.6966146
御所にし公園,金沢市御所町２丁目189番地,36.58191281,136.6972594
御所ひがし公園,金沢市御所町２丁目172番地,36.58118,136.70015
山王町第２児童公園,金沢市山王町２丁目168番地ほか,36.57581139,136.6967748
山王町第４児童公園,金沢市山王町１丁目394番地,36.57343423,136.7043939
金沢市立諸江町小学校,金沢市北安江２丁目25番１号,36.58863496,136.647934
金沢市立浅野川中学校,金沢市諸江町下丁388番地,36.60261397,136.6491542
金沢勤労者プラザ,金沢市北安江３丁目２番20号,36.58314476,136.6465801
金沢市諸江公民館,金沢市諸江町29番１号,36.59062966,136.6415363
駅西第２児童公園,金沢市北安江３丁目1201番地,36.58542402,136.6467542
割出町公園,金沢市割出町418番地,36.60257221,136.6399427
諸江児童公園,金沢市諸江町2815番地,36.5928866,136.642016
諸江町下丁ふれあい公園,金沢市諸江町下丁263番地１,36.60029297,136.6468634
諸江町上丁ゆうあい公園,金沢市諸江町上丁524番地１,36.59411721,136.647952
北安江２丁目公園,金沢市北安江２丁目1408番地,36.58619078,136.6494317
問屋児童公園,金沢市問屋町２丁目117番地１ほか,36.60779613,136.6392639
問屋町緑地,金沢市問屋町１丁目61番地,36.60606619,136.638347
金沢市立浅野川小学校,金沢市須崎町チ42番地,36.6210696,136.6416554
金沢市浅野川公民館,金沢市大河端西１丁目96番地,36.61532814,136.6396038
金沢市営浅野川市民体育館,金沢市大河端西１丁目96番地,36.61479179,136.6399429
弓取町児童公園,金沢市弓取町172番地,36.61126002,136.6402967
三口町第１児童公園,金沢市三口町火237番地,36.60789117,136.6401312
北間町公園,金沢市北間町ホ161番地,36.62248221,136.6345278
北間町西公園,金沢市北間町ハ93番地１,36.62107317,136.6381143
大河端西鷹狩り公園,金沢市大河端西１丁目57番地,36.61430387,136.639517
湊２丁目釣公園,金沢市湊２丁目34番地１,36.6352535,136.6468495
湊運動公園,金沢市湊２丁目86番地,36.63342485,136.6466039
金沢市立鞍月小学校,金沢市南新保町リ27番地１,36.60173266,136.632538
金沢市立港中学校,金沢市近岡町217番地,36.609826,136.628096
金沢市鞍月公民館,金沢市直江南１丁目１番地,36.60292557,136.6328412
鞍月セントラルパーク,金沢市鞍月１丁目８番地,36.59245918,136.6247949
西部緑道,金沢市鞍月３丁目70番地ほか,36.59882301,136.6173127
鞍月磯のひろば公園,金沢市鞍月４丁目53番地,36.59723914,136.6218657
鞍月広場,金沢市鞍月４丁目21番地,36.59909098,136.6207434
鞍月中央公園,金沢市直江西１丁目201番地,36.61087833,136.6345049
戸水公園,金沢市湊４丁目62番地,36.60810647,136.62383
戸水船のひろば公園,金沢市戸水１丁目400番地,36.60328943,136.6205224
大友なぎさ公園,金沢市大友１丁目148番地,36.59960754,136.6263233
直江北公園,金沢市直江北１丁目176番地,36.61534252,136.6337685
湊３丁目公園,金沢市湊３丁目19番地１,36.62503321,136.6359815
金沢市立粟崎小学校,金沢市粟崎町ヘ78番地,36.62123295,136.6245675
金沢市ものづくり会館,金沢市粟崎町４丁目80番地１,36.62856087,136.6203539
金沢市粟崎公民館,金沢市粟崎町１丁目３番地,36.62561064,136.6278979
粟崎第１公園,金沢市粟崎町３丁目242番地,36.62680927,136.6213539
粟崎中央公園,金沢市粟崎町２丁目247番地,36.62799107,136.626058
粟崎町４丁目児童公園,金沢市粟崎町４丁目６番地ほか,36.63407535,136.6215949
木谷公園,金沢市粟崎町リ１番地１ほか,36.62550141,136.6314891
金沢市松寺公民館,金沢市松寺町丑42番地,36.60386147,136.6519044
金沢プール,金沢市磯部町ハ55番地,36.59706661,136.6598392
金沢市営城北市民テニスコート,金沢市松寺町酉90番地１,36.60150254,136.6564589
金沢市城北市民運動公園,金沢市磯部町ニ25番地１ほか,36.59754244,136.6583608
松寺中央公園,金沢市松寺町子83番地１,36.60229692,136.6518202
金沢市立大浦小学校,金沢市大浦町ヌ87番地,36.623324,136.653178
金沢市大浦公民館,金沢市大浦町ヲ39番地１,36.62438853,136.6531212
こなん水辺公園,金沢市東蚊爪町マ33番１ほか,36.63260979,136.6642035
みなと新婚の森,金沢市湊２丁目123番地,36.63500249,136.648866
瑞樹西公園,金沢市みずき４丁目247番地,36.62300616,136.6666877
瑞樹中央公園,金沢市みずき２丁目262番地,36.62184263,136.6719696
湊１丁目公園,金沢市湊１丁目118番地１,36.64001,136.65756
湊２丁目水鳥公園,金沢市湊２丁目90番地１ほか,36.63644683,136.6477203
木越運動公園,金沢市木越３丁目99番地,36.61776066,136.666577
木越中央公園,金沢市木越２丁目１番地,36.61958316,136.6672908
金沢市立米丸小学校,金沢市東力町ニ155番地,36.56565859,136.6200031
金沢市西部市民憩いの家,金沢市東力町ハ256番地,36.56320154,136.6192869
金沢市営西部市民体育会館,金沢市東力町ハ250番地,36.56299041,136.6198448
金沢市米丸公民館,金沢市間明町２丁目72番地,36.56512302,136.618287
あすなろの森,金沢市東力４丁目90番地,36.56283185,136.6238038
玉鉾公園,金沢市玉鉾２丁目361番地,36.57353748,136.622811
高畠第２児童公園,金沢市高畠１丁目328番地,36.57081556,136.6130908
黒田児童公園,金沢市黒田１丁目９番地,36.56129656,136.6155789
伏見川中央公園,金沢市東力町ハ273番地,36.56305622,136.6181174
米丸中央公園,金沢市高畠１丁目382番地ほか,36.57035583,136.6164172
保古東公園,金沢市保古１丁目120番地,36.55819689,136.6214174
米丸交流広場,金沢市東力町ハ284番地,36.56147712,136.6179527
金沢市立新神田小学校,金沢市新神田１丁目10番58号,36.56499942,136.6347753
金沢市立高岡中学校,金沢市新神田１丁目10番１号,36.56543712,136.635691
金沢市新神田公民館,金沢市新神田１丁目１番18号,36.56397337,136.6356117
糸田第２児童公園,金沢市糸田２丁目207番地,36.5593155,136.6230302
神田交通公園,金沢市新神田３丁目113番地,36.56116657,136.6305076
入江第１児童公園,金沢市入江２丁目250番地,36.56633,136.62682
金沢市立押野小学校,金沢市八日市１丁目175番地,36.545862,136.609351
金沢市押野公民館,金沢市八日市２丁目464番地,36.54604761,136.6085786
押野松の木公園,金沢市押野３丁目525番地,36.54799435,136.6136282
八日市アメリカフウ児童公園,金沢市八日市５丁目296番地,36.54777842,136.6098932
八日市ケヤキ児童公園,金沢市八日市５丁目455番地,36.55063129,136.6098579
八日市住吉中央公園,金沢市八日市２丁目608番地,36.54362083,136.6084583
金沢市立西南部小学校,金沢市八日市出町304番地,36.55584761,136.6082487
金沢市立西南部中学校,金沢市新保本１丁目149番地,36.55276413,136.6062103
金沢市営西金沢テニスコート,金沢市西金沢３丁目684番地,36.55457348,136.6114257
金沢市西南部公民館,金沢市西金沢３丁目684番地,36.55473086,136.6122129
チカモリ遺跡公園,金沢市新保本５丁目47番地,36.55609738,136.6046368
古府町第１児童公園,金沢市古府町南851番地,36.55965121,136.6105907
新保本町ふれあい公園,金沢市新保本４丁目70番地,36.55877682,136.602929
新保本町中央公園,金沢市新保本２丁目502番地,36.55186812,136.602132
西金児童公園,金沢市西金沢新町256番地ほか,36.55408389,136.6154379
西部中央公園,金沢市西金沢５丁目286番地ほか,36.5572135,136.6158939
八日市出町ふるみや公園,金沢市八日市出町718番地,36.5527741,136.6082895
金沢市立三和小学校,金沢市矢木１丁目74番地,36.55799981,136.5967497
金沢市三和公民館,金沢市上荒屋４丁目82番地,36.553753,136.593355
いなほふれあい公園,金沢市いなほ１丁目８番地,36.55248045,136.5825136
上荒屋１丁目くすのき公園,金沢市上荒屋１丁目346番地,36.54775076,136.5920853
上荒屋つばき公園,金沢市上荒屋８丁目43番地,36.5504777,136.5898726
上荒屋にれの木公園,金沢市上荒屋５丁目453番地,36.557383,136.5894466
上荒屋もくれん公園,金沢市上荒屋６丁目446番地,36.55327518,136.5886539
神野東公園,金沢市神野町東107番地２,36.56391413,136.6001881
矢木第１児童公園,金沢市矢木３丁目308番地,36.56020849,136.5933239
金沢市立三馬小学校,金沢市久安６丁目154番地,36.543557,136.633738
金沢高等学校,金沢市泉本町３丁目111番地,36.55061631,136.6353428
金沢市立清泉中学校,金沢市泉本町３丁目３番地,36.54805464,136.6362932
金沢市三馬公民館,金沢市久安６丁目59番地１,36.54208365,136.6346077
横川児童公園,金沢市横川４丁目２番地,36.53927823,136.6302994
清泉公園,金沢市泉本町１丁目160番地６ほか,36.54705806,136.6358657
有松たつあがり公園,金沢市有松３丁目33番地,36.54081872,136.6403861
有松児童遊園,金沢市有松４丁目155番地,36.54037076,136.6365825
金沢市立米泉小学校,金沢市米泉町４丁目133番地２,36.54574359,136.6281777
石川県立金沢伏見高等学校,金沢市米泉町５丁目85番地,36.549195,136.627877
金沢市米泉公民館,金沢市米泉町８丁目126番地,36.55053794,136.6264888
金沢市立富樫小学校,金沢市山科３丁目６番60号,36.529503,136.645737
石川県立金沢錦丘高等学校・中学校,金沢市窪６丁目218番地,36.53002838,136.6413688
金沢南総合運動公園,金沢市富樫３丁目８番30号,36.53914456,136.6429011
金沢市富樫公民館,金沢市山科１丁目６番８号,36.5283824,136.6472696
寺地いなほ公園,金沢市寺地２丁目69番地,36.53698712,136.6355873
寺地なかよし公園,金沢市伏見台２丁目72番地ほか,36.53352105,136.6379316
寺地みんなの広場,金沢市寺地１丁目39番地,36.53550018,136.6440863
金沢市立伏見台小学校,金沢市窪５丁目335番地,36.52665357,136.6380041
金沢市立高尾台中学校,金沢市高尾台１丁目128番地,36.52291499,136.6343828
国際高等専門学校,金沢市久安２丁目270番地,36.53255226,136.6292949
金沢市伏見台公民館,金沢市窪５丁目675番地,36.52591793,136.6380717
円光寺第２公園,金沢市伏見台３丁目58番地ほか,36.53174869,136.6349713
横川日吉児童公園,金沢市横川１丁目68番地,36.53530067,136.6230421
久安殿屋敷公園,金沢市久安２丁目281番地,36.53328019,136.6306445
久安伏見公園,金沢市久安１丁目489番地,36.53266957,136.6322197
窪錦丘公園,金沢市窪７丁目309番地,36.53068066,136.6391763
窪伏見台公園,金沢市窪４丁目547番地,36.5268493,136.6396408
高尾中央公園,金沢市高尾台３丁目143番地,36.52139471,136.6303417
三馬第１児童公園,金沢市三馬３丁目150番地,36.52845874,136.632137
三馬第２児童公園,金沢市三馬１丁目229番地,36.52515337,136.6312183
三馬第３児童公園,金沢市三馬１丁目73番地,36.52651414,136.6348125
三馬第４児童公園,金沢市三馬３丁目325番地,36.52740118,136.6306028
的場公園,金沢市高尾台１丁目354番地,36.52211336,136.636477
金沢市立額小学校,金沢市額乙丸町イ55番地,36.51030313,136.621582
金沢市立額中学校,金沢市額乙丸町イ１番地,36.5107,136.622989
金沢市額公民館,金沢市額谷３丁目１番地１,36.51088342,136.6241778
金沢市額谷ふれあい体育館,金沢市額谷町ヌ16番地,36.509409,136.629936
金沢市老人福祉センター鶴寿園,金沢市額谷町ヌ１番地,36.50981237,136.6294954
額せせらぎ公園,金沢市額谷１丁目１番地ほか,36.51193589,136.6256056
額乙丸児童公園,金沢市額乙丸町ハ151番地,36.51061241,136.6181899
額新保中央公園,金沢市額新保２丁目350番地,36.51636187,136.6163309
額谷ふれあい公園,金沢市額谷町ヌ16番地ほか,36.50875738,136.6301444
金沢市営額谷運動広場,金沢市額谷町ホ２番地３,36.50911708,136.6291085
額谷第１児童公園,金沢市額谷２丁目49番地,36.50859,136.62611
光が丘３丁目児童公園,金沢市光が丘３丁目19番地,36.51313,136.62727
光が丘中央公園,金沢市光が丘２丁目105番地,36.51632213,136.6278022
大額１丁目公園,金沢市大額１丁目378番地,36.51432862,136.6185543
大額２丁目公園,金沢市大額２丁目132番地,36.51681583,136.6240343
金沢市立四十万小学校,金沢市四十万３丁目186番地,36.50276979,136.6175628
金沢市四十万公民館,金沢市四十万３丁目90番地,36.50365773,136.6188317
三十苅児童公園,金沢市三十苅町丙184番地,36.50807005,136.6189146
三十苅中央公園,金沢市三十苅町丁154番地,36.50738858,136.6153934
四十万あいぞめ公園,金沢市南四十万１丁目221番地,36.49761705,136.6194034
四十万きずな広場,金沢市四十万町北チ54番地３,36.507066,136.623713
四十万中央公園,金沢市四十万３丁目185番地,36.50347265,136.6182149
中四十万児童公園,金沢市四十万町リ407番地,36.4998449,136.6211049
金沢市立扇台小学校,金沢市馬替１丁目34番地,36.5227621,136.625436
金沢市扇台公民館,金沢市馬替１丁目29番地１,36.52207424,136.6241346
あすなろ公園,金沢市額新町１丁目26番地ほか,36.51809064,136.620223
額新町１丁目緑地,金沢市額新町１丁目183番地ほか,36.51935487,136.6214188
額新町２丁目緑地,金沢市額新町２丁目49番地ほか,36.51632765,136.6198569
額新町第２公園,金沢市額新町１丁目217番地ほか,36.51905648,136.6236878
額新町第３児童公園,金沢市額新町２丁目77番地１,36.51714833,136.6204257
光が丘１丁目児童公園,金沢市光が丘１丁目67番地ほか,36.52072568,136.6257262
高尾第３児童公園,金沢市高尾南１丁目165番地,36.51527794,136.6343735
高尾南ゆうあい公園,金沢市高尾南２丁目119番地,36.51727354,136.6309753
城谷公園,金沢市高尾台４丁目57番地,36.5232498,136.6270412
馬替児童公園,金沢市馬替２丁目39番地ほか,36.52342962,136.62227
金沢市立長田町小学校,金沢市長田１丁目５番40号,36.5753721,136.6422278
金沢市長田町公民館,金沢市長田１丁目５番50号,36.57585732,136.6429925
駅西第１児童公園,金沢市広岡２丁目802番地,36.57845475,136.6433546
駅西第３児童公園,金沢市駅西本町１丁目904番地,36.57983461,136.6399427
駅西中央公園,金沢市西念１丁目1101番地,36.58256724,136.6436167
長田２丁目ひまわり公園,金沢市長田２丁目９番地ほか,36.57484604,136.6399953
金沢市立戸板小学校,金沢市戸板１丁目１番地,36.57926794,136.6227611
金沢市立長田中学校,金沢市二宮町１番１号,36.58515234,136.6290747
金沢市戸板公民館,金沢市戸板１丁目２番地,36.579886,136.6226297
駅西第４児童公園,金沢市駅西本町３丁目406番地,36.58299028,136.6361687
戸板東公園,金沢市戸板４丁目19番地,36.5812546,136.6257896
桜田中央公園,金沢市桜田町１丁目116番地,36.57922,136.62009
桜田南児童公園,金沢市桜田町２丁目65番地,36.57676819,136.6213025
示野中青島公園,金沢市示野中町２丁目114番地,36.57540507,136.6156775
示野中中央公園,金沢市示野中町１丁目40番地,36.57789925,136.617155
示野町児童公園,金沢市示野町西26番地ほか,36.58156795,136.6071412
若宮中央公園,金沢市若宮２丁目29番地,36.5751651,136.6312097
出雲中央公園,金沢市出雲町イ418番地,36.57628886,136.6249644
西都ゆめみどり公園,金沢市西都２丁目15番地,36.59003541,136.6261688
大豆田公園,金沢市大豆田本町甲535番地,36.57287534,136.6328602
北町児童公園,金沢市駅西本町６丁目403番地,36.58557021,136.6265483
戸板公園,金沢市戸板５丁目87番地,36.58163136,136.6226292
示野公園,金沢市示野町チ233番地,36.5816428,136.6098649
金沢市立西小学校,金沢市駅西新町３丁目15番１号,36.59216806,136.636561
金沢市西公民館,金沢市西念２丁目34番９号,36.586902,136.640583
姉妹都市公園,金沢市駅西新町３丁目1001番地ほか,36.59168204,136.6351604
南新保第２児童公園,金沢市駅西新町２丁目1101番地,36.59471031,136.6392825
西念町児童公園,金沢市西念３丁目701番地,36.58750733,136.6368238
西念町第２公園,金沢市西念２丁目3101番地,36.58703858,136.6414598
金沢市二塚公民館,金沢市北塚町西98番地,36.57274608,136.5971755
いしかわ総合スポーツセンター,金沢市稚日野町北222番地,36.579353,136.598409
金沢市営専光寺ソフトボール場,金沢市専光寺町レ３番地５ ,36.58621685,136.5790461
加賀友禅染色団地公園,金沢市専光寺町ニ172番地,36.58273206,136.5866603
健民海浜公園,金沢市普正寺町11の１番地１,36.5915182,136.5831825
古府中央公園,金沢市古府３丁目95番地,36.57079556,136.6075111
古府徳代公園,金沢市古府２丁目４番地,36.56653865,136.6095217
松島町西公園,金沢市松島３丁目179番地,36.56658031,136.6014603
松島町中央公園,金沢市松島２丁目165番地,36.56425625,136.6019436
西部緑地公園,金沢市袋畠町南193番地,36.57585503,136.601919
専光寺五本松公園,金沢市専光寺町そ94番地,36.58219644,136.5805645
金沢市立安原小学校,金沢市福増町北1087番地,36.56697,136.579381
金沢市立緑小学校,金沢市みどり１丁目166番地,36.57012759,136.5907047
金沢龍谷高等学校,金沢市上安原町169番地１,36.56604097,136.5862184
金沢市立緑中学校,金沢市みどり２丁目３番地,36.57051685,136.5844456
安原スポーツ広場,金沢市下安原町東1127番地,36.56985433,136.5736512
金沢市安原公民館,金沢市福増町北1067番地,36.56788943,136.5803639
みどり第２児童公園,金沢市みどり１丁目172番地,36.56874778,136.5907129
みどり中央公園,金沢市みどり２丁目58番地１,36.56784044,136.5847913
みどり庭園公園,金沢市みどり３丁目22番地ほか,36.56733831,136.5839218
安原中央公園,金沢市福増町北744番地ほか,36.56585184,136.5771195
産王の杜公園,金沢市中屋１丁目177番地,36.56260885,136.5860183
上安原中央公園,金沢市上安原１丁目262番地,36.56529804,136.5905354
打木町くろまつ公園,金沢市打木町東1452番地,36.56823948,136.5697928
打木町東児童公園,金沢市打木町東1301番地,36.5689676,136.5723628
八洲原公園,金沢市上安原町943番地,36.56300021,136.5865412
福増あじさい公園,金沢市福増町南1309番地,36.56286383,136.5821225
福増ゆめ公園,金沢市福増町南1310番地,36.56116183,136.581014
金沢市立大徳小学校,金沢市松村６丁目200番地,36.59143314,136.6100386
金沢市立木曳野小学校,金沢市木曳野１丁目１番地,36.59778808,136.6036563
石川県立金沢西高等学校,金沢市畝田東３丁目526番地,36.59621236,136.6180191
金沢市立工業高等学校,金沢市畝田東１丁目１番地１,36.59179339,136.615675
金沢市立大徳中学校,金沢市観音堂町ト35番地,36.590106,136.607238
金沢市営城西市民体育館,金沢市木曳野１丁目３番地,36.5979662,136.6029913
金沢市大徳公民館,金沢市畝田西１丁目201番地１,36.59232097,136.6099615
金沢市立金沢海みらい図書館,金沢市寺中町イ１番地１,36.59428184,136.6043739
きびきの中央公園,金沢市木曳野３丁目30番地,36.6017771,136.6044453
松村あおぞら公園,金沢市松村３丁目550番地,36.58227107,136.6156361
松村第２公園,金沢市松村２丁目29番地,36.58558901,136.6142002
畝田町児童公園,金沢市畝田東２丁目７番地ほか,36.59533646,136.6140916
藤江北やすらぎ公園,金沢市藤江北４丁目446番地,36.591867,136.6201816
藤江北中央公園,金沢市藤江北２丁目337番地ほか,36.58949769,136.6221905
無量寺うみかぜ公園,金沢市無量寺町ハ201番地,36.60235743,136.6152059
無量寺ベイパーク,金沢市無量寺４丁目２番地,36.59992504,136.6129389
無量寺公園,金沢市無量寺３丁目14番地,36.60504034,136.6081839
金沢市立金石町小学校,金沢市金石北４丁目１番１号,36.608937,136.598654
金沢市立金石中学校,金沢市金石東１丁目13番１号,36.60026642,136.597261
金沢市金石町公民館,金沢市金石西４丁目５番30号,36.60430974,136.5943079
金沢市老人福祉センター松寿荘,金沢市金石北３丁目３番33号,36.607933,136.599387
金石銭五公園,金沢市金石北２丁目147番地,36.60767168,136.5970659
大野湊緑地公園,金沢市金石本町ロ55番地,36.5960929,136.5968935
金沢市立大野町小学校,金沢市大野町１丁目15番地,36.610353,136.603321
金沢市大野町公民館,金沢市大野町１丁目８番地５,36.61082998,136.6029001
金沢市立小立野小学校,金沢市小立野４丁目７番７号,36.551585,136.678373
石川県立金沢商業高等学校,金沢市小立野５丁目４番１号,36.55315583,136.6792867
金沢市立紫錦台中学校,金沢市飛梅町３番30号,36.55800258,136.6687807
北陸学院高等学校,金沢市飛梅町１番10号,36.55931295,136.6669678
金沢大学（鶴間キャンパス）,金沢市小立野５丁目11番80号,36.55490268,136.6765663
金沢美術工芸大学,金沢市小立野５丁目11番１号,36.55629952,136.6772484
金沢市小立野公民館,金沢市小立野４丁目７番51号,36.550971,136.679032
笠舞第２児童公園,金沢市笠舞１丁目414番地,36.54943203,136.6732055
笠舞第３児童公園,金沢市笠舞１丁目234番地,36.54790797,136.6753552
金沢市立南小立野小学校,金沢市涌波２丁目５番１号,36.537336,136.681568
金沢市崎浦公民館,金沢市小立野２丁目41番36号,36.54680392,136.6804982
金沢市営城東市民体育館,金沢市土清水２丁目346番地,36.524789,136.691267
大桑防災拠点広場,金沢市大桑３丁目80番地,36.53645755,136.6766789
三口新町第１児童公園,金沢市三口新町３丁目294番地,36.54390839,136.6811566
三口新町第２児童公園,金沢市三口新町２丁目145番地,36.53989881,136.680627
三口新町第３児童公園,金沢市三口新町４丁目266番地,36.54381035,136.677156
小立野児童公園,金沢市小立野１丁目729番地,36.54507827,136.6829796
大桑かやのした公園,金沢市大桑３丁目81番地,36.53585843,136.6775641
土清水たかみ公園,金沢市土清水２丁目337番地,36.52550777,136.690941
土清水なかの公園,金沢市土清水１丁目297番地,36.52830935,136.6914184
土清水みすぎ公園,金沢市土清水３丁目66番地,36.53185966,136.6909982
涌波堤公園,金沢市涌波１丁目199番地,36.53343171,136.6888111
金沢市立内川小学校,金沢市別所町井18番地,36.504468,136.676
金沢市立内川中学校,金沢市別所町井18番地,36.504322,136.6760192
北陸学院小学校,金沢市三小牛町イ11番地,36.5180448,136.67196
北陸学院大学,金沢市三小牛町イ11番地,36.51775163,136.6704311
金沢市内川スポーツ広場,金沢市山川町１の１番地,36.51136924,136.686505
金沢市内川公民館,金沢市三小牛町20の１番地10,36.50980493,136.6749714
駒帰資料保管所（旧駒帰小学校）,金沢市駒帰町ヌ40番地１,36.48327982,136.7279256
金沢市立犀川小学校,金沢市末町２の148番地,36.51148505,136.6980626
金沢学院大学附属高等学校,金沢市末町10,36.51412383,136.6952724
石川県立金沢辰巳丘高等学校,金沢市末町ニ18番地,36.52031251,136.6913658
金沢市立犀生中学校,金沢市末町10の４番地,36.514617,136.699816
金沢学院大学,金沢市末町10,36.51734926,136.6954533
金沢工業大学天池自然学苑体育館,金沢市天池町３番地,36.50380372,136.6940383
金沢市犀川公民館,金沢市末町６の67番地１,36.51690805,136.688191
犀清台児童公園,金沢市末町13の52番地32,36.52286679,136.6846023
金沢市立湯涌小学校,金沢市湯涌荒屋町23番地,36.4916648,136.7535371
金沢市立芝原中学校,金沢市湯涌荒屋町23番地,36.491789,136.753448
金沢市立田上小学校,金沢市田上の里２丁目１番地,36.54621952,136.6931889
金沢大学（角間キャンパス）,金沢市角間町,36.54709684,136.7073725
北陸大学,金沢市太陽が丘１丁目１番地,36.52545366,136.7074872
金沢市田上公民館,金沢市田上の里２丁目３番地,36.54544025,136.6920642
旭町なかよし公園,金沢市旭町２丁目８番地,36.55581861,136.6813338
旭町河畔公園,金沢市旭町１丁目52番地,36.55076774,136.6879058
旭町中央公園,金沢市旭町２丁目207番地,36.55357998,136.6840151
医王の杜公園,金沢市もりの里１丁目1000番地,36.55230671,136.6876501
若松せせらぎ公園,金沢市若松町1000番地ほか,36.55420706,136.6914594
若松町第２児童公園,金沢市若松町ツ168番地１,36.55799691,136.6941391
若松八幡さん公園,金沢市若松町３丁目1000番地,36.55737256,136.6890668
浅野川すずかけ公園,金沢市もりの里２丁目1000番地,36.555672,136.6849659
太陽が丘ゆうひみ公園,金沢市太陽が丘２丁目266番地ほか,36.53386822,136.705545
太陽が丘詩の木公園,金沢市太陽が丘２丁目213番地,36.5296754,136.705812
中瀬栃の木公園,金沢市上若松町1000番地,36.55049407,136.6915131
田上さくらぶち公園,金沢市田上さくら１丁目100番地,36.54227427,136.6898825
田上郷公園,金沢市田上の里１丁目195番地,36.54411066,136.6940164
田上桜の道公園,金沢市田上さくら３丁目111番地,36.54750183,136.6886028
田上児童公園,金沢市田上新町234番地１ほか,36.54336203,136.6998277
田上中央公園,金沢市田上１丁目６番地,36.54327507,136.6964987
田上本町高嶋公園,金沢市田上本町３丁目52番地１,36.53777511,136.6965471
田上本町朝霧公園,金沢市田上本町１番地１,36.53448302,136.693384
田上本町馬場公園,金沢市田上本町１丁目１番地,36.53208279,136.6989168
太陽が丘しいの木公園,金沢市太陽ヶ丘土地区画整理事業地内７工区11街区,36.53462662,136.7076216
旧金沢市立東浅川小学校,金沢市浅川町イ140番地１,36.518645,136.706788
金沢市東浅川公民館,金沢市上中町ニ14番地,36.5204318,136.7054949
湖南学院,金沢市上中町ロ11番地1,36.51739,136.703246
俵交流芸術スタジオ,金沢市俵町ヘ乙22番地,36.53429257,136.72367
金沢市キゴ山ふれあい研修センター青少年交流棟,金沢市小豆沢町ヲ４番地,36.52375634,136.7459503
金沢市キゴ山ふれあい研修センターこども交流棟,金沢市平等本町カ13番地１,36.51797256,136.7429247
金沢市戸室スポーツ広場,金沢市戸室新保ト35番地,36.54607544,136.7325575
金沢市俵公民館,金沢市俵町ツ63番地２,36.53439134,136.725048
金沢市立医王山小学校,金沢市二俣町サ21番地,36.555475,136.7598309
金沢市立医王山中学校,金沢市二俣町サ21番地,36.555661,136.7598188
金沢市医王山公民館,金沢市二俣町６の14番地９,36.56207208,136.7619483
金沢市立森本小学校,金沢市南森本町イ24番地,36.62277274,136.693158
石川県立金沢北陵高等学校,金沢市吉原町ワ21番地,36.60731924,136.6927542
金沢市立森本中学校,金沢市弥勒町ヨ22番地,36.61585074,136.6915604
金沢市森本公民館,金沢市南森本町チ103番地１,36.61666181,136.6933504
金沢市営森本市民体育館,金沢市弥勒町ヨ50番地１,36.61582909,136.6925308
吉原児童公園,金沢市吉原町ヨ23番地,36.60960263,136.6924796
森本こどもグラウンド,金沢市塚崎町ハ47番地１,36.61487437,136.6969503
森本しちょうが丘公園,金沢市南森本町ワ102番地ほか,36.61629121,136.6985278
金沢市立花園小学校,金沢市今町ヌ34番地,36.63262249,136.7082292
旧金沢市立上平小学校,金沢市上平町ハ25番地,36.62775862,136.773865
旧金沢市立朝日小学校,金沢市加賀朝日町ホ33番地,36.62268612,136.7556051
金沢市花園公民館,金沢市今町チ41番地,36.63347397,136.7076224
金沢市湖南公民館,金沢市八田町東1459番地１,36.63313925,136.6860875
石川県立金沢向陽高等学校,金沢市大場町東590番地,36.62400924,136.687387
金沢競馬場,金沢市八田町西１番地,36.63357139,136.6756981
湖陽児童公園,金沢市湖陽１丁目133番地,36.62589562,136.6881364
湖陽緑道公園,金沢市湖陽１丁目79番地,36.62741398,136.6885794
北部公園,金沢市忠縄町,36.62699714,136.6922515
柳瀬川つつみ公園,金沢市大場町西21番地１ほか,36.63344999,136.6706282
金沢市立不動寺小学校,金沢市不動寺町イ33番地,36.60856275,136.7083715
金沢市薬師谷公民館,金沢市不動寺町イ34番地１,36.60805464,136.7086834
河原市町みずほ中央公園,金沢市河原市町30番地,36.60365103,136.710508
金沢市立三谷小学校,金沢市宮野町ニ277番地,36.59600326,136.7365386
金沢市三谷公民館,金沢市宮野町ホ79番地,36.59676216,136.7372818
御祓地区コミュニティセンター,石川県七尾市一本杉町１２４,37.04827939,136.9613864
七尾中学校,石川県七尾市藤橋町辰部５２－１,37.037932,136.958599
県立七尾高等学校,石川県七尾市西藤橋町エ１－１,37.04249566,136.9589127
県立七尾城北高等学校,石川県七尾市西藤橋町エ１－１,37.04330706,136.9595551
小丸山城址公園,石川県七尾市馬出町子１－１,37.04627049,136.960134
県中能登総合事務所（駐車場）,石川県七尾市小島町ニ３３,37.04829442,136.9585352
桜町児童公園,石川県七尾市桜町７９,37.05112177,136.9643406
七尾産業福祉センター（４F）,石川県七尾市三島町７０－１,37.0439883,136.9514026
恵寿総合病院（本館）（４F）,石川県七尾市富岡町９４,37.050254,136.9615224
ローレルハイツ恵寿（３F）,石川県七尾市富岡町９５,37.0502448,136.9607959
北陸電力株式会社,石川県七尾市三島町６１－７,37.0480759,136.9657265
パトリア（４F）,石川県七尾市御祓町１,37.0434525,136.9632565
ミナ.クル（４F）,石川県七尾市神明町１,37.0432821,136.964514
DSGアリーナ七尾店（立体駐車場4F）,石川県七尾市藤橋町亥２１,37.0369758,136.9547922
山王小学校,石川県七尾市山王町ツ３４,37.04153574,136.9743522
みなとふれあいスポーツセンター,石川県七尾市矢田新町ニ１－１,37.04963334,136.9776827
みなと小公園,石川県七尾市矢田新町２－５８－１,37.04881194,136.9772735
湊町都市再開発用地,石川県七尾市矢田新町ハ,37.04688396,136.9740738
七尾マリンパーク,石川県七尾市府中町員外６７,37.04845872,136.9698786
ポートサイド七尾（５F）,石川県七尾市矢田新町地先埋立地,37.04953513,136.9761509
プラザ信開,石川県七尾市川原町１８,37.04212958,136.9696397
ホテルルートイン,石川県七尾市本府中町ハ３１－１,37.04184593,136.9672722
袖ケ江立体駐車場（４F）,石川県七尾市袖ケ江町１２,37.043751,136.9673563
七尾市役所（４F）,石川県七尾市袖ケ江町イ２５,37.0430915,136.9674127
のと共栄信用金庫,石川県七尾市桧物町３５,37.04523794,136.9652221
徳田地区コミュニティセンター,石川県七尾市中挟町リ２３,37.01232499,136.9489551
県立七尾東雲高等学校,石川県七尾市下町戊部１２－１,37.01260339,136.929546
朝日小学校,石川県七尾市下町戌１７－１,37.00998087,136.9306692
南部体育館,石川県七尾市下町戌１７－１,37.01029786,136.9299021
ふれあいセンター山びこ荘,石川県七尾市多根町ハカノ谷内５５５－７,36.97558663,136.9608916
能登国分寺公園,石川県七尾市国分町リ９,37.02443704,136.9573457
能登歴史公園,石川県七尾市国分町地内,37.02279061,136.9546903
オークラ,石川県七尾市国分町ラ５０,37.03494024,136.9519782
矢田郷地区コミュニティセンター,石川県七尾市本府中町ヲ３８,37.03371533,136.9700514
七尾市文化ホール,石川県七尾市本府中町ヲ３８,37.0332495,136.9696101
天神山小学校,石川県七尾市本府中町天神山１,37.03158334,136.9746018
七尾東部中学校,石川県七尾市藤野町リ１,37.02767123,136.969073
七尾市城山体育館,石川県七尾市後畠町後山４－５,37.02612032,136.9712123
七尾市城山運動公園,石川県七尾市後畠町ハ２,37.02494522,136.9710014
鵬学園高等学校（第２グラウンド）,石川県七尾市矢田町メ１,37.03093954,136.977425
七尾東部用地（本府中グラウンドゴルフ場）,石川県七尾市本府中町ソ,37.0394366,136.9719672
矢田郷児童公園,石川県七尾市矢田町３－４１,37.04100764,136.9765299
旧　七尾工業高校　運動場,石川県七尾市南ヶ丘３４２,36.9945304,137.0519353
東湊地区コミュニティセンター,石川県七尾市佐味町ト２－３,37.04830435,136.9975929
東湊小学校,石川県七尾市佐味町１０－４,37.04707751,136.9982688
郷橋ふれあいセンター,石川県七尾市殿町ル６７,37.05059362,137.0231493
希望の丘公園,石川県七尾市万行町４３－１８８,37.03041059,136.9903695
西湊地区コミュニティセンター,石川県七尾市津向町松山１,37.05768562,136.9504753
小丸山小学校,石川県七尾市小島町チ３,37.04682031,136.9534302
七尾総合市民体育館,石川県七尾市小島町西４,37.0438336,136.952608
七尾市武道館,石川県七尾市小島町西５,37.04368802,136.953477
西部グラウンド,石川県七尾市小島町西１－１,37.04430457,136.9520032
旧　御祓中学校　運動場,石川県七尾市小島町ル４２,36.9945304,137.0519353
つつじが浜児童公園,石川県七尾市つつじが浜３－６２,37.0541798,136.9596573
西湊公園,石川県七尾市津向町ヘ８３,37.05752683,136.9509134
エレガンテなぎの浦（４F）,石川県七尾市津向町ト１０７－４,37.0565098,136.955162
七尾西湊合同庁舎（４F）,石川県七尾市小島町大開地３－７,37.05510344,136.9548666
石崎小学校,石川県七尾市石崎町子４０,37.07539613,136.9304303
能登香島中学校,石川県七尾市石崎町香島１－９６,37.08027232,136.9277111
和倉温泉運動公園,石川県七尾市石崎町チ３２－１,37.08540404,136.9287069
和倉地区コミュニティセンター,石川県七尾市和倉町ク１５－３,37.08551521,136.917208
和倉小学校,石川県七尾市和倉町ひばり３－９０,37.08298126,136.9180105
和倉温泉お祭り会館,石川県七尾市和倉町２－１３－１,37.086596,136.918707
わくわくプラザ,石川県七尾市和倉町ヨ１０９,37.09077972,136.9161805
和倉１号児童公園,石川県七尾市和倉町ひばり２－９０,37.08392205,136.9227129
和倉温泉湯っ足りパーク,石川県七尾市和倉町ひばり１,37.0875043,136.9240277
南大呑地区コミュニティセンター,石川県七尾市黒崎町関上野３４２－８,36.98311557,137.0489581
旧　有磯小学校,石川県七尾市黒崎町ヲ１００－１,36.9945304,137.0519353
旧　涛南中学校,石川県七尾市黒崎町サ２０－１,36.9945304,137.0519353
北大呑地区コミュニティセンター,石川県七尾市庵町ウ２３－２,37.04067398,137.0460603
大呑放課後児童クラブ,石川県七尾市庵町ヨ３１,37.02630664,137.0484738
崎山地区コミュニティセンター,石川県七尾市鵜浦町下１３－２,37.09718,137.046416
旧　北嶺中学校,石川県七尾市湯川町３－６８－２,36.9945304,137.0519353
高階地区コミュニティセンター,石川県七尾市町屋町ホ５５,37.0327357,136.9019601
旧　高階保育園,石川県七尾市池崎町い２３,36.9945304,137.0519353
田鶴浜地区コミュニティセンター,石川県七尾市垣吉町へ２４,37.05977745,136.8949965
田鶴浜小学校,石川県七尾市田鶴浜町ホ３６５,37.05943238,136.8919372
県立田鶴浜高等学校,石川県七尾市上野ヶ丘町５９,37.05936651,136.8832862
田鶴浜勤労者体育センター,石川県七尾市田鶴浜町二１１７,37.06130041,136.8936229
田鶴浜体育館,石川県七尾市田鶴浜町二１４４,37.060241,136.892649
田鶴浜武道館,石川県七尾市田鶴浜町二６３,37.06120195,136.8927539
健康福祉プラザさつき苑,石川県七尾市田鶴浜町ハ３,37.06234671,136.8893945
田鶴浜多目的グラウンド,石川県七尾市垣吉町ヘ２４,37.0608605,136.895769
田鶴浜地区コミュニティセンター相馬分館,石川県七尾市伊久留町ム２,37.0294117,136.8896401
田鶴浜地区コミュニティセンター金ヶ崎分館（駐車場）,石川県七尾市大津町ク３１,37.06812039,136.8535235
ふれあい交流館,石川県七尾市大津町７－１１２,37.06973686,136.8461845
中島地区コミュニティセンター西岸分館,石川県七尾市中島町小牧タ１８－１,37.14221587,136.872366
旧　西岸小学校,石川県七尾市中島町外２－１,36.9945304,137.0519353
中島地区コミュニティセンター釶打分館,石川県七尾市中島町西谷内ヘ９８,37.15037902,136.8115892
中島釶打農林漁家高齢者センター,石川県七尾市中島町藤瀬３－１２２－１,37.14355151,136.8179521
中島体育館,石川県七尾市中島町中島甲６３－１,37.12286802,136.8526304
中島文化センター,石川県七尾市中島町中島上９,37.12197596,136.8537019
中島中学校（運動場）,石川県七尾市中島町中島甲１４,37.12180091,136.8521967
中島集いの広場,石川県七尾市中島町中島甲８０,37.12244494,136.8531781
中島小学校,石川県七尾市中島町上町チ２６－２,37.12158291,136.8426196
中島地区コミュニティセンター熊木分館,石川県七尾市中島町上町ヲ１１３,37.12669439,136.8434716
中島お祭り資料館・伝承館,石川県七尾市中島町横田１－１４８,37.12917936,136.8324238
宮前農村公園,石川県七尾市中島町宮前甲１０,37.12893986,136.8335503
中島地区コミュニティセンター豊川分館,石川県七尾市中島町豊田町ル１３－１,37.10080169,136.833954
中島健康福祉センターすこやか,石川県七尾市中島町河崎ヌ５０－１,37.10699768,136.8475366
中島地区コミュニティセンター笠師保分館,石川県七尾市中島町笠師ミ６３,37.09533354,136.8578042
旧　笠師保小学校,石川県七尾市中島町笠師ワ２２,36.9945304,137.0519353
能登島地区コミュニティセンター,石川県七尾市能登島向田町ろ８－１,37.12605025,136.9965011
能登島生涯学習総合センター,石川県七尾市能登島向田町五級６３－１,37.12194051,136.9940151
能登島武道館立野,石川県七尾市能登島向田町五級６３－１,37.12298819,136.9942345
能登島小学校,石川県七尾市能登島向田町ロ１５,37.12312104,136.9975073
たくみの里第１・第２駐車場,石川県七尾市能登島向田町１２２－６,37.13807485,136.9974387
旧　西部小学校跡地,石川県七尾市能登島半浦町１５－１,36.9945304,137.0519353
能登島グラウンド,石川県七尾市能登島向田町馬付ケ谷内３１―１,37.12263749,136.9967818
芦城公園,丸の内公園町19,36.40953566,136.44804
市民公園,土居原町７１１,36.40266303,136.4523471
小松運動公園,末広町2,36.40100016,136.4404375
ルートイングランティア小松エアポート,長崎町4-116-1,36.41901399,136.4312845
ホテルエコノ小松,長崎町2-60,36.42544,136.43711
特別養護老人ホ－ムあたかの郷,安宅町ル1-28,36.4253988,136.4243629
ケアハウスファミ－ル,安宅町ル1-8,36.424949,136.4247111
市営木曽町住宅,安宅町甲10,36.41461044,136.4201014
北陸自動車道緊急避難施設,草野町地内,36.40747,136.413526
小松空港北陸エアターミナルビル,浮柳町ヨ50,36.403051,136.4155317
木場潟公園,三谷町ら之部58,36.36700355,136.4505441
今江ふれあい公園,今江町一丁目542,36.38647396,136.438163
国府台中央公園,国府台四丁目157,36.41618983,136.519466
軽海中央公園,西軽海町四丁目99,36.39593667,136.5001595
東部地区拠点避難地,西軽海町二丁目204-14,36.39522654,136.5049558
粟津公園,符津町念仏3-1,36.35582063,136.4205053
南部児童公園,矢田野町ワ1-1,36.35188871,136.422671
粟津おっしょべ公園,粟津町ル6-1,36.32837362,136.4469626
さわ池ふれあいパーク,下粟津町コ55-8,36.34530405,136.4270269
アル・プラザ小松（立体駐車場部分）,園町ハ23-1,36.406448,136.460454
イオン小松店（屋上駐車場部分）,平面町ア69,36.419367,136.472302
こまつアズスクエア（公立小松大学部分）,土居原町10-10,36.400644,136.452231
小松駅前立体駐車場,土居原町600,36.400093,136.452259
小松大谷高等学校,津波倉町チ1,36.347506,136.445608
小松駅西立体駐車場,土居原町740,36.403919,136.452481
株式会社小松電業所,国府台五丁目32-1,36.416191,136.525192
国土交通省小松除雪ステーション駐車場,八幡へ之部,36.394306,136.492493
イオンモール新小松（屋上駐車場部分）,清六町315,36.395076,136.467426
輪島市立西保公民館,輪島市大沢町ホサソ201番地3,37.37517479,136.8030764
輪島市立大屋公民館,輪島市小伊勢町丸垣内22番地1,37.38113475,136.8859617
輪島市立港公民館,輪島市輪島崎町1部211番地4,37.40328928,136.8999197
輪島市立鳳至公民館,輪島市鳳至町石浦町83番地1,37.3984856,136.8968992
輪島市文化会館（輪島市立輪島公民館）,輪島市河井町20部1番1地,37.38858231,136.9059664
輪島市ふれあい健康センター,輪島市河井町2部287番地1,37.39412378,136.9011806
輪島市立三井公民館,輪島市三井町長沢2字12番地1,37.3153856,136.9025995
輪島市立河原田公民館,輪島市西脇町60番地1,37.35717884,136.9083812
輪島市立鵠巣公民館,輪島市大野町菰沢35番地,37.397544,136.933553
輪島市立南志見公民館,輪島市里町32字36番地,37.43026082,137.034125
輪島市立町野公民館,輪島市町野町粟蔵川原田22番地1,37.42336356,137.0881297
輪島市立剱地公民館,輪島市門前町剱地ツの60番地,37.23176542,136.7087165
輪島市立阿岸公民館,輪島市門前町南ナの17番地,37.25543487,136.7331535
輪島市立黒島公民館,輪島市門前町黒島町高池45番地,37.27890327,136.7356329
輪島市立諸岡公民館,輪島市門前町道下7の175番地,37.2884034,136.7452591
輪島市役所門前総合支所（防災研修室）,輪島市門前町走出6の69番地,37.28738375,136.7679637
輪島市門前会館（輪島市立門前公民館）,輪島市門前町走出6の92番地2,37.28779845,136.7677714
輪島市立本郷公民館,輪島市門前町二又川4の4番地1,37.28483556,136.8266462
輪島市立浦上公民館,輪島市門前町浦上8の58番地,37.30576893,136.7976142
輪島市立七浦公民館,輪島市門前町鵜山12の50番地,37.34528114,136.7528073
舳倉島開発総合センター,輪島市海士町所属舳倉島出邑山1番4,37.85058749,136.9181068
旧輪島市立西保小学校（グラウンド）,輪島市赤崎町ニの80番地,37.38299113,136.8137655
旧輪島市立二俣小学校（グラウンド）,輪島市二俣町19の32番地,37.35607624,136.8654971
輪島市立大屋小学校（グラウンド）,輪島市小伊勢町日隅7番地3,37.38301196,136.8892972
旧輪島市立輪島中学校（グラウンド）,輪島市宅田町25部36番地1,37.38512675,136.8976285
天神山広場,輪島市輪島崎町2字地内,37.40465155,136.8982001
鳳来山公園,輪島市鳳至町地内,37.40053501,136.8963762
ホテル八汐,輪島市鳳至町袖ヶ浜1,37.40192544,136.8963933
輪島市立鳳至小学校（グラウンド）,輪島市鳳至町堂金田1番地,37.39615434,136.895594
輪島地方合同庁舎,輪島市鳳至町畠田99番地3,37.39187625,136.8955794
輪島宿舎3号棟,輪島市鳳至町畠田99番地21,37.39156,136.89472
一本松総合運動公園,輪島市杉平町1字12番地,37.39143297,136.9097463
輪島市健康ふれあい広場,輪島市河井町16部1番地1,37.38989082,136.9086481
輪島市一本松ゲートボール場,輪島市河井町9部30番地,37.39125294,136.9117659
輪島市立河井小学校（グラウンド）,輪島市河井町18部1番地2,37.3922794,136.9040438
輪島市立輪島中学校（屋外運動場）,輪島市河井町11部39番地1,37.38958461,136.912555
石川県立輪島高等学校（グラウンド）,輪島市河井町18部42番地2,37.39021492,136.9033647
石川県奥能登土木総合事務所,輪島市河井町22部1番地1,37.39081586,136.9014137
ホテル,輪島市マリンタウン1番地2,37.39613598,136.9050236
夢セゾンビル,輪島市河井町5部279番地,37.39442179,136.9069666
三井地区運動広場（輪島市立三井公民館前広場）,輪島市三井町長沢1字34番地2,37.31560225,136.9022296
輪島市立三井小学校（グラウンド）,輪島市三井町興徳寺10字29番地,37.31543111,136.8986953
旧輪島市立三井中学校（グラウンド）,輪島市三井町興徳寺10字33番地,37.31628011,136.8990065
輪島市立河原田小学校（グラウンド）,輪島市横地町6字123番地,37.37216386,136.907097
緑の健康広場,輪島市北谷町ニ字18番地,37.35666356,136.9093581
輪島市農村ふれあい広場,輪島市西脇町60番地,37.35712127,136.9088076
輪島市立鵠巣公民館横広場,輪島市深見町65部33番地1,37.4107924,136.9696318
輪島市立鵠巣小学校（グラウンド）,輪島市大野町菰沢2番地3,37.39683919,136.9347926
石川県立輪島高等学校稲舟校舎（グラウンド）,輪島市稲舟町上野50番地,37.39131363,136.9213199
旧石川県輪島実業高等学校（格技場）,輪島市稲舟町上野50番地,37.39144861,136.9201708
旧輪島市立南志見小学校（グラウンド）,輪島市里町3部16番地,37.43258404,137.034037
南志見多目的グラウンド（公民館前広場）,輪島市里町32字20番地,37.42975819,137.0350137
千枚田ポケットパーク,輪島市白米町ハ部99番地4,37.42412112,136.9980386
輪島市立東陽中学校（グラウンド）,輪島市町野町粟蔵川原田33番地,37.42260833,137.086784
町野野球場,輪島市町野町東大野出村60番地,37.43921013,137.0772474
輪島市町野テニスコート,輪島市町野町東大野出村109番地,37.44006939,137.0785899
輪島市町野グラウンドゴルフ場,輪島市町野町東大野出村91番地,37.43848324,137.0778027
輪島市立町野小学校（グラウンド）,輪島市町野町粟蔵川原田42番地,37.42159012,137.0892302
旧輪島市立仁岸小学校（グラウンド）,輪島市門前町馬場ニの20番地,37.23122482,136.7085748
旧輪島市もんぜん文化村緑地広場,輪島市門前町腰細9の29番地,37.24264885,136.7036974
南農村公園,輪島市門前町南カの15番地,37.25386373,136.7314461
ふれあい工房あぎし（グラウンド）,輪島市門前町是清イの１,37.25515962,136.7321406
輪島市立黒島公民館広場,輪島市門前町黒島町高池45番地,37.27924262,136.7356195
道下農村公園,輪島市門前町道下104の2番地1,37.28824281,136.7443688
輪島市立門前西小学校（グラウンド）,輪島市門前町道下1の123番地,37.28546459,136.7406928
門前総合運動公園（門前簡易グラウンド）,輪島市門前町清水7の1番地,37.29140562,136.7598352
輪島市立門前東小学校（グラウンド）,輪島市門前清水1の68番地,37.28825566,136.7670811
輪島市立門前中学校（グラウンド）,輪島市門前町清水10の21番地,37.29125863,136.7642118
石川県立門前高等学校（グラウンド）,輪島市門前町広岡5の3番地,37.28541861,136.767888
上本郷農村公園,輪島市門前町別所2の91番地,37.2749029,136.8401879
下本郷農村公園,輪島市門前町谷口12の28番地,37.2874419,136.8132497
輪島市浦上健康増進広場,輪島市門前町浦上チの1番地1,37.30572053,136.7982863
あすなろ公園,輪島市門前町浦上10の20番地1,36.51809064,136.620223
輪島市七浦基幹集落センター（駐車場）,輪島市門前町餅田9の16番地2,37.34688221,136.7556313
皆月青少年旅行村（駐車場）,輪島市門前町皆月ミの117番地,37.35466425,136.7546519
へぐら愛らんどタワー,輪島市海士町所属舳倉島出邑山,37.85118579,136.9180733
舳倉島灯台,海士町所属舳倉高見,37.85139,136.918504
旧輪島市立鵠巣公民館,深見町65部33番地1,37.41062951,136.9697852
国道249号（松波鵜島ﾊﾞｲﾊﾟｽA）,石川県珠洲市宝立町宗玄地内,37.37299656,137.2348752
国道249号（松波鵜島ﾊﾞｲﾊﾟｽB）,石川県珠洲市宝立町宗玄地内,37.37356782,137.2347035
国道249号（松波鵜島ﾊﾞｲﾊﾟｽC）,石川県珠洲市宝立町鵜島地内,37.3781348,137.23337
国道249号（松波鵜島ﾊﾞｲﾊﾟｽD）,石川県珠洲市宝立町鵜島地内,37.38030451,137.2337992
市道61号線（稲荷神社裏山）,石川県珠洲市宝立町鵜島地内,37.38276834,137.2336704
白山神社（南黒丸）,石川県珠洲市宝立町南黒丸6-35-1,37.38671399,137.2314634
農道宝立45号線（南黒丸）,石川県珠洲市宝立町南黒丸地内,37.38967626,137.2325936
市道63号線（びや坂）,石川県珠洲市宝立町南黒丸地内,37.39279238,137.2338543
たら山台地,石川県珠洲市宝立町鵜島地内,37.39528134,137.235292
旧宝立小学校体育館,石川県珠洲市宝立町鵜島4-30,37.39670849,137.2366813
柏原集会所,石川県珠洲市宝立町柏原38-48-10,37.3981977,137.2195356
宝立小中学校（4階）,石川県珠洲市宝立町鵜飼丑-83,37.40321596,137.2376553
宝立公民館,石川県珠洲市宝立町鵜飼卯-46,37.4015772,137.2393476
中野山道①,石川県珠洲市宝立町春日野地内,37.40705242,137.2316534
中野山道③,石川県珠洲市宝立町春日野地内,37.40824542,137.2322969
長寿園,石川県珠洲市宝立町春日野4-117,37.41125155,137.240256
大畠台地,石川県珠洲市宝立町春日野地内,37.41419153,137.2375523
旧谷崎街道,石川県珠洲市宝立町春日野地内,37.4127599,137.2428953
高井集会所,石川県珠洲市宝立町春日野地内,37.4102812,137.226595
第三長寿園（屋上）,石川県珠洲市宝立町鵜飼子-36-4,37.40501543,137.239335
市道741号線,石川県珠洲市上戸町寺社地内,37.41737272,137.2369011
市道95号線,石川県珠洲市上戸町寺社地内,37.41666701,137.2429391
隨念山,石川県珠洲市上戸町寺社地内,37.41866095,137.2380682
清水山①,石川県珠洲市上戸町南方地内,37.42413199,137.2419871
清水山②,石川県珠洲市上戸町南方地内,37.4219436,137.240509
高照寺,石川県珠洲市上戸町南方地内,37.42959263,137.2454604
上戸小学校（3階）,石川県珠洲市上戸町寺社5-74-2,37.42718571,137.2499434
上戸公民館,石川県珠洲市上戸町寺社2-57-1,37.42750095,137.2513971
さんぺい山,石川県珠洲市上戸町南方地内,37.43145917,137.2485317
珠洲消防署,石川県上戸町北方22-100,37.4343474,137.2526263
珠洲市役所（5階）,石川県珠洲市上戸町北方1-6-2,37.4363579,137.260435
飯田小学校,石川県珠洲市飯田町19-61,37.43989973,137.2594808
飯田公民館,石川県珠洲市飯田町10-20-2,37.43977225,137.2632294
春日神社,石川県珠洲市飯田町17-50,37.4378457,137.2600243
旧消防署訓練塔（5階・屋上）,石川県珠洲市飯田町13-120-1,37.4357138,137.2659707
珠洲商工会議所（4階）,石川県珠洲市飯田町1-1-9,37.43287779,137.2600696
石川県珠洲第１職員住宅,石川県珠洲市若山町出田わ62-1,37.4468174,137.2623514
若山小学校,石川県珠洲市若山町古蔵11-100-1,37.45651007,137.2426511
若山公民館,石川県珠洲市若山町古蔵寅-60-1,37.45671021,137.241428
旧上黒丸小学校,石川県珠洲市若山町上黒丸10-34,37.4534553,137.1691424
飯田高等学校駐車場・グラウンド,石川県珠洲市野々江町1-1,37.4477671,137.2689101
珠洲市総合病院（3階）,石川県珠洲市野々江町ユ-1-1,37.44352336,137.270523
緑丘中学校,石川県珠洲市野々江町6-1,37.44653448,137.273012
直小学校（3階）,石川県珠洲市野々江町ニ-38-2,37.44374092,137.2817308
直公民館,石川県珠洲市野々江町ホ-80-1,37.44386112,137.2801202
上水道正院配水池,石川県珠洲市熊谷地内,37.45203681,137.2837838
正院小学校,石川県珠洲市正院町川尻1-39,37.44578548,137.2965091
正院公民館,石川県珠洲市正院町正院22-2-1,37.44400158,137.2941486
勧涛山（かんどやま）,石川県珠洲市正院町小路地内,37.44809749,137.2944483
殿山,石川県珠洲市正院町正院地内,37.44634709,137.2966316
黒瀧城跡地,石川県珠洲市正院町川尻地内,37.44449868,137.2989973
旧飯塚保育所,石川県珠洲市正院町飯塚は-57,37.45988861,137.287075
平床集会所,石川県珠洲市正院町平床地内,37.46150659,137.3049031
のとスターラインA,石川県珠洲市正院町川尻地内,37.45009845,137.2987641
のとスターラインB,石川県珠洲市正院町川尻地内,37.4494594,137.3041115
のとスターラインC,石川県珠洲市蛸島町地内,37.44826694,137.3100767
のとスターラインD,石川県珠洲市蛸島町地内,37.45032818,137.3191319
のとスターラインE,石川県珠洲市蛸島町地内,37.44939126,137.3256765
弁天近隣公園,石川県珠洲市蛸島町地内,37.4418421,137.3084294
蛸島小学校（3階）,石川県珠洲市蛸島町ワ-69,37.4429906,137.3133223
蛸島公民館,石川県珠洲市蛸島町ヨ-139,37.44296118,137.3164477
市営野球場（観客席）,石川県珠洲市蛸島町鉢ケ崎1-4,37.44417382,137.321091
珠洲ビーチホテル（6階）,石川県珠洲市蛸島町1-2-480,37.44019472,137.3267313
山王の森,石川県珠洲市蛸島町地内,37.43848005,137.3114126
市道56号線（雲津上野付近）,石川県珠洲市三崎町雲津地内,37.4487898,137.3349653
市道56号線（荒池付近）,石川県珠洲市三崎町雲津地内,37.44971328,137.3420762
白山神社（雲津）,石川県珠洲市三崎町雲津地内,37.44387006,137.3452091
市道587号線三叉路（小山田付近）,石川県珠洲市三崎町小泊地内,37.4484909,137.3516443
県道28号線,石川県珠洲市三崎町小泊地内,37.45017536,137.3562544
金沢大学能登学舎（旧小泊小学校）,石川県珠洲市三崎町小泊33-7,37.45114409,137.3589721
小泊共同墓地駐車場,石川県珠洲市三崎町小泊地内,37.45203415,137.3544338
市道56号線（長池付近）,石川県珠洲市三崎町小泊地内,37.45353316,137.3512419
旧伏見葉タバコ乾燥場前,石川県珠洲市三崎町伏見地内,37.45806885,137.3529538
高波高台,石川県珠洲市三崎町高波地内,37.46322046,137.3497121
松森神社,石川県珠洲市三崎町引砂地内,37.4651129,137.345383
みさきデイサービスセンター前,石川県珠洲市三崎町宇治ヲ-7,37.46824977,137.3410638
三崎中学校（3階）,石川県珠洲市三崎町宇治ヨ-114,37.47385496,137.3420873
三崎公民館,石川県珠洲市三崎町宇治ヨ-114-13,37.4741408,137.3418053
森腰台地,石川県珠洲市三崎町森腰地内,37.478815,137.3343679
粟津井田地内,石川県珠洲市三崎町粟津地内,37.48324026,137.3266736
林道粟津線,石川県珠洲市三崎町粟津地内,37.48639025,137.3330733
粟津遠山,石川県珠洲市三崎町粟津地内,37.48526649,137.3349455
粟津帆上,石川県珠洲市三崎町粟津地内,37.48679889,137.3371986
みさき小学校,石川県珠洲市三崎町粟津ロ-10-1,37.48685848,137.3391244
大浜田尻上野,石川県珠洲市三崎町寺家地内,37.48983352,137.3400108
げんべい坂,石川県珠洲市三崎町寺家地内,37.49277976,137.340876
川上本町集会所,石川県珠洲市三崎町寺家地内,37.4958953,137.3423995
下出集会場,石川県珠洲市三崎町寺家地内,37.4979758,137.347739
須々神社,石川県珠洲市三崎町寺家地内,37.4982574,137.3462258
専称寺,石川県珠洲市三崎町寺家地内,37.5021946,137.3489335
塩津上野集会所,石川県珠洲市三崎町寺家地内,37.50358145,137.3491157
旧本小学校,石川県珠洲市三崎町本17-47,37.46697457,137.321699
県道28号線（狼煙ポケットパーク）,石川県珠洲市狼煙町地内,37.51869972,137.3289187
狼煙館裏山,石川県珠洲市狼煙町地内,37.52342454,137.3250456
禄剛崎灯台台地,石川県珠洲市狼煙町地内,37.52885953,137.3259468
狼煙運動公園,石川県珠洲市狼煙町地内,37.5265069,137.3189409
狼煙林道,石川県珠洲市狼煙町地内,37.52611975,137.3165269
市道246号線,石川県珠洲市川浦町地内,37.52639203,137.3053743
等覚寺,石川県珠洲市川浦町1-3,37.52667282,137.3041887
県道28号線（川浦バス停）,石川県珠洲市川浦町地内,37.52484647,137.2997487
旧日置小中学校,石川県珠洲市折戸町ヌ-8,37.52589275,137.2834413
日置公民館,石川県珠洲市折戸町チ-34,37.5254254,137.2813426
市道252号線（折戸）,石川県珠洲市折戸町地内,37.5228258,137.278785
県道28号線（木の浦隧道待避所）,石川県珠洲市折戸町地内,37.52976368,137.2753262
木ノ浦ビレッジ駐車場,石川県珠洲市折戸町ホ-25-1,37.52706648,137.2664427
新保山出①,石川県珠洲市高屋町地内,37.51803827,137.2404912
新保山出②,石川県珠洲市高屋町地内,37.51810635,137.2461882
市道253-1号線（角内出）,石川県珠洲市高屋町地内,37.51888073,137.2379377
円龍寺,石川県珠洲市高屋町地内,37.51747663,137.2354701
市道268号線,石川県珠洲市高屋町地内,37.51520449,137.2343436
新地谷地内①,石川県珠洲市馬緤町地内,37.51145782,137.2220108
新地谷地内②,石川県珠洲市馬緤町地内,37.51031106,137.2215709
市道38号線,石川県珠洲市馬緤町地内,37.50731518,137.2169168
守禅寺,石川県珠洲市馬緤町地内,37.5051832,137.2124643
市道272号線,石川県珠洲市馬緤町地内,37.5040895,137.211209
馬緤児童公園,石川県珠洲市馬緤町地内,37.50469806,137.2066386
本光寺,石川県珠洲市馬緤町地内,37.506294,137.2008879
国道249号線（大谷峠登り口（大谷側））,石川県珠洲市馬緤町地内,37.4979286,137.1830442
高山,石川県珠洲市大谷町地内,37.49920107,137.2009681
大谷小中学校,石川県珠洲市大谷町1-78,37.50005079,137.1763511
旧西部小学校跡地,石川県珠洲市大谷町2-47甲,37.50128228,137.171472
大谷公民館,石川県珠洲市大谷町2-57-4,37.50165905,137.1741111
廣栄寺,石川県珠洲市大谷町地内,37.49861375,137.1720406
市道284号線（末光山）,石川県珠洲市長橋町地内,37.5014987,137.1658465
曹源寺,石川県珠洲市長橋町地内,37.49866003,137.1539428
市道244号線（抜鉾神社裏道）,石川県珠洲市片岩町地内,37.49586977,137.1416581
海蔵寺,石川県珠洲市片岩町地内,37.49220091,137.1303391
白山神社（清水）,石川県珠洲市清水町地内,37.4882677,137.1199935
農道大谷525号線,石川県珠洲市清水町地内,37.48526892,137.1162166
林道仁江線,石川県珠洲市仁江町地内,37.48236153,137.1091249
白山神社（真浦）,石川県珠洲市真浦町地内,37.47286382,137.0950433
加賀市立錦城小学校運動場,大聖寺八間道５７,36.30804193,136.307084
加賀市立錦城東小学校運動場,大聖寺敷地ワ１３,36.31257557,136.3236371
加賀市立錦城中学校運動場,大聖寺地方町６乙７４－１,36.30091808,136.3033643
加賀体育館駐車場,大聖寺東町２丁目３－１,36.30400412,136.318064
石川県立大聖寺高等学校運動場,大聖寺永町３３－１,36.30882568,136.3189287
石川県立大聖寺実業高等学校運動場,熊坂町ヲ７７,36.29727186,136.3052463
石川県立加賀聖城高等学校運動場,大聖寺馬場町２８,36.30628422,136.3068453
加賀市大聖寺テニスコート,大聖寺八間道３０ー２,36.30666383,136.3077366
大聖寺ふれあい広場古九谷の杜,大聖寺地方町１－１－１,36.30179937,136.3105537
加賀市立山代小学校運動場,山代温泉山背台２丁目４４－１,36.2925431,136.3574228
加賀市立山代中学校運動場,上野町エ４５－２,36.29887857,136.3731263
山代グラウンド,山代温泉１６－１０６０,36.29228765,136.3655717
松籟公園,山代温泉１６－１０６０,36.29149205,136.3669129
桔梗ケ丘広場,山代温泉桔梗ｹ丘３丁目４７－２,36.28600926,136.3556705
山代スマートパーク,山代温泉１５－３９－１,36.290474,136.357052
加賀市文化会館駐車場,山代温泉北部２丁目６８,36.29652316,136.3580321
緑ヶ丘公園,別所町漆器団地10番地4,36.276306,136.358674
加賀市立庄小学校運動場,庄町ワ１０１－１,36.31324475,136.3744794
加賀市立勅使小学校運動場,勅使町２４,36.30328074,136.3884968
加賀市立東谷口小学校運動場,水田丸町ヌ３６－１,36.28465277,136.3896381
加賀市立片山津小学校運動場,片山津町ス丙２１,36.33956495,136.3656971
片山津温泉湯の曲輪ひろば,片山津温泉乙56－5,36.34548699,136.36587
加賀市立片山津中学校運動場,潮津町レ１－１,36.35187491,136.3494644
柴山潟湖畔公園,潮津町イ１０６,36.35198071,136.3618194
加賀市片山津野球場,潮津町ソ１,36.35008187,136.3503871
加賀市立作見小学校運動場,作見町ナ１５４,36.32432935,136.3542491
中央公園,山田町リ２４５－２,36.32186171,136.3309416
加賀市立金明小学校運動場,塩浜町１０４,36.3501994,136.3333218
加賀市立湖北小学校運動場,柴山町ひ９２－１,36.358149,136.367962
加賀市立動橋小学校運動場,動橋町ヘ１－１,36.32976369,136.3898407
加賀市立東和中学校運動場,動橋町ネ５４－１,36.32464681,136.3816112
石川県立加賀高等学校運動場,動橋町ム５３－１,36.33041059,136.3780124
動橋グラウンド,動橋町ナ１４－１,36.32894081,136.3812372
加賀市立分校小学校運動場,打越町ニ２２,36.32939459,136.3998034
黒崎多目的広場,黒崎町め２３,36.3347119,136.2955416
加賀市立橋立小中学校運動場,小塩町ろ１,36.34835833,136.313791
橋立自然公園,橋立町井３４３,36.34884466,136.3061817
旧加賀市立三木小学校運動場,三木町ニ９８－１,36.29328539,136.2849589
加賀市立三谷小学校運動場,直下町ニ丙７３,36.28309996,136.3242894
加賀市立南郷小学校運動場,吸坂町ヤ２６,36.30474169,136.3375439
旧加賀市立緑丘小学校運動場,大聖寺瀬越町塩屋境山１－１,36.29545482,136.2561684
山中温泉ゆけむり健康村駐車場,山中温泉こおろぎ町イ１９,36.2381359,136.3676598
加賀市立山中小学校運動場,山中温泉上野町ル１５－９,36.25256942,136.3676754
山中球場,山中温泉東桂木町ヌ１１－２,36.25513035,136.3730988
加賀市立山中中学校運動場,山中温泉上原町ト甲１-１,36.25326449,136.365513
加賀市立河南小学校運動場,山中温泉中田町ニ２５－１,36.26960689,136.3569223
山中健民体育館駐車場,山中温泉加美谷台２丁目２,36.25518447,136.3656276
河南広場,山中温泉長谷田町ロ３４０,36.26773136,136.3582428
エネックス株式会社加賀工場用地の一部,山中温泉菅谷町ニ３２,36.23010021,136.3622525
旧中津原保育園運動場,山中温泉中津原町ハ５-１,36.2621192,136.3973815
東谷農村公園,山中温泉中津原町ち１,36.26270877,136.397699
旧東谷生活改善センター広場,山中温泉荒谷町ト２０,36.25005478,136.4292569
羽咋小学校,羽咋市中央町サ９０,36.8940764,136.7753468
羽咋中学校,羽咋市中央町キ５９,36.89149793,136.7754567
コスモアイル羽咋,羽咋市鶴多町免田２５,36.89835933,136.7881804
羽咋運動公園,羽咋市鶴多町亀田１７,36.89973775,136.7925765
中央公園,羽咋市中央町フ１６９－２,36.32186171,136.3309416
白鷺公園,羽咋市大川町ヤ２１１－１１,36.90507542,136.7729622
御坊山児童公園,羽咋市御坊山町１６－１,36.89047212,136.7821246
道の駅のと千里浜,羽咋市千里浜町タ１－６２,36.88605748,136.7684368
粟ノ保小学校,羽咋市粟生町キ１－２,36.88064804,136.7781414
瑞穂小学校,羽咋市深江町ル６１－１,36.90267625,136.8004448
吉崎・次場弥生公園,羽咋市吉崎町ウ１９－１,36.90556044,136.7897947
神子原スポーツセンター,羽咋市神子原町チ２２,36.88421446,136.8618353
邑知小学校,羽咋市飯山町ロ２０,36.90028131,136.8229974
邑知中学校,羽咋市飯山町ホ５７,36.90590504,136.8301509
邑知の郷公園,羽咋市中川町へ５０,36.89456542,136.8143703
余喜小学校,羽咋市大町コ部４２,36.93279604,136.8460311
旧鹿島路小学校,羽咋市鹿島路町レ６,36.93760315,136.8146602
眉丈台地スポーツ広場,羽咋市柳田町シ１,36.9243112,136.7786524
西北台小学校,羽咋市滝町ケ１４－２,36.93518862,136.7625077
一ノ宮公民館,羽咋市一ノ宮町レ８６－１,36.92472105,136.7627526
上甘田公民館,羽咋市柴垣町３６字１９－１,36.9529393,136.7662771
羽咋高等学校,羽咋市柳橋町１,36.89349676,136.7892579
羽咋工業高校,羽咋市西釜屋町ク２１,36.90838405,136.775079
羽松高等学校,羽咋市吉崎町ラ１－２,36.89787908,136.793359
国立能登青少年交流の家,羽咋市柴垣町１４－５－６,36.93527271,136.7717937
千里浜運動公園,羽咋市千里浜町ソ１０－５９,36.89600122,136.7689924
大海小学校,夏栗ロ10,36.77857974,136.7475832
高松小学校,高松ヤ10,36.76907545,136.7192952
高松中学校,高松ヤ42,36.7672942,136.7210354
七塚小学校,木津ホ61-1,36.74790614,136.7017399
河北台中学校,遠塚ロ47-１,36.73479374,136.7031242
外日角小学校,外日角ニ52,36.72364785,136.6918618
金津小学校,谷カ30,36.74156604,136.7252958
宇ノ気中学校,森レ１,36.72327891,136.7065613
宇ノ気小学校,宇野気リ147,36.71972596,136.7040571
大海交流センター,夏栗い34,36.77858443,136.7491544
高松グラウンド・ゴルフ場,ニツ屋マ１,36.78677211,136.7308635
高松産業文化センター,高松ク42-1,36.7693709,136.7214551
たかまつまちかど交流館,高松ツ56-1,36.77155354,136.7170012
高松老人福祉センター,高松ヌ100,36.77135593,136.7394522
アクロス高松,内高松ニ12,36.76247396,136.734425
かほく市サッカー・ラグビー競技場,内高松オ80,36.76535685,136.7329325
高松野球場,内高松オ１,36.76388835,136.7355856
木津公園,木津ヘ30-１他,36.74692822,136.7033801
七塚生涯学習センター,遠塚ロ57-６,36.73588591,136.7000966
河北台健民体育館,浜北イ25-３,36.73314407,136.7026
七塚武道館,浜北イ25-16,36.73279125,136.70217
七塚中央公園,遠塚ニ17-１他,36.73543229,136.6973291
七塚体育センター,白尾ナ97,36.71424,136.687985
白尾しらゆり公園,白尾ヲ24他,36.71825727,136.697268
よこやま研修館,横山リ２-14,36.74670946,136.7190285
金津体育館,谷ワ108,36.74294,136.72801
藤が丘公園,上田名ニ24,36.74347955,136.734029
谷公園,谷イ92他,36.74244495,136.7272796
七窪体育館,七窪ホ41,36.72657467,136.7100609
宇ノ気新化館,森レ20,36.72282381,136.7062149
うのけ総合公園陸上競技場,下山田ヲ85,36.72085262,136.7278956
宇ノ気野球場,下山田ル７,36.71918624,136.7246697
宇ノ気体育センター,下山田丑39-1,36.71885656,136.7239235
宇ノ気生涯学習センター,宇野気ニ110-１,36.72041299,136.7065582
宇野気公民館,宇野気リ196,36.72075471,136.7038343
宇ノ気スポーツセンター,宇野気リ196-１,36.72057431,136.7040355
宇ノ気老人福祉センター,内日角ウ4-1,36.7152756,136.6944818
西田幾多郎記念哲学館,内日角井１,36.71429568,136.6936968
大崎区民会館,大崎チ115,36.70519072,136.6905907
宇ノ気南部体育館,大崎チ73,36.70492838,136.6903762
指江コミュニティセンター,指江フ１,36.70567542,136.7195021
潮見台公園,大崎潮見台177,36.71047194,136.6839292
光野中学校,石川県白山市番匠町468-1,36.5351842,136.5813826
松任高等学校,石川県白山市馬場一丁目100,36.52055445,136.5618856
翠星高等学校,石川県白山市三浦町500-1,36.5134099,136.5745887
石川公民館,石川県白山市源兵島町332-1,36.48410799,136.5274737
柏野公民館,石川県白山市下柏野町483,36.49865468,136.5366234
笠間防災コミュニティセンター,石川県白山市笠間町623-1,36.50477002,136.5255918
出城公民館,石川県白山市成町406-2,36.52289119,136.5551421
御手洗公民館,石川県白山市相川町1566-1,36.53889786,136.5410227
旭公民館・旭丘体育館,石川県白山市旭丘二丁目32,36.55097039,136.5676516
中奥公民館,石川県白山市中奥町144-1,36.51930546,136.5806107
林中公民館,石川県白山市乙丸町461,36.49786083,136.5752846
郷公民館,石川県白山市田中町230,36.5304615,136.5890838
山島公民館,石川県白山市安吉町120,36.48343515,136.565352
千代野公民館・千代野児童センター,石川県白山市千代野西八丁目30,36.52743812,136.5377066
湊小学校,石川県白山市湊町カ307,36.47424167,136.4774715
美川スポーツセンター,石川県白山市美川浜町タ6,36.48892078,136.4915375
湊防災コミュニティセンター,石川県白山市湊町ヨ70-1,36.47902711,136.4776156
朝日小学校,石川県白山市鶴来日吉町ロ111,37.00998087,136.9306692
明光小学校,石川県白山市井口町は1-4,36.47725425,136.6060821
広陽小学校,石川県白山市知気寺町と77-2,36.48693105,136.6024528
鶴来高等学校,石川県白山市月橋町710,36.45729284,136.6194132
白山郷公園体育館,石川県白山市鶴来大国町ロ125-2,36.45508232,136.6195258
林公民館,石川県白山市道法寺町へ24,36.48301791,136.613083
舘畑公民館,石川県白山市日向町イ19,36.48267151,136.5937351
白山青年の家,石川県白山市八幡町戍142,36.44244445,136.6327136
河内小学校,石川県白山市河内町口直海イ88,36.40216195,136.6309213
かわちこども園,石川県白山市河内町福岡88,36.39853976,136.6213947
河内ウッディホール,石川県白山市河内町江津い30,36.3844464,136.613311
かわち保健センター,石川県白山市河内町福岡77,36.39793773,136.6205372
吉野谷公民館,石川県白山市佐良ニ136,36.32381352,136.6469043
吉野谷セミナーハウス,石川県白山市中宮ヲ16,36.27537262,136.6889946
鳥越小学校,石川県白山市上野町オ１,36.37131529,136.6052206
鳥越中学校,石川県白山市釜清水町チ140,36.36390514,136.6082537
鳥越ふるさとセンター,石川県白山市上吉谷町甲99,36.33414402,136.6350557
白嶺小中学校,石川県白山市瀬戸申66,36.29638783,136.6409195
北竜会館,石川県白山市尾添ヌ243,36.26989673,136.7153806
白峰地域交流センター（白峰温泉総湯）,石川県白山市白峰ロ9,36.17440574,136.6265897
白峰コミュニティホール,石川県白山市白峰ハ149,36.17719184,136.6243509
美川中学校,石川県白山市美川浜町タ5,36.48939119,136.4923237
白山市民交流センターはくさんホール,石川県白山市倉光2-1,36.5144641,136.5651293
道の駅めぐみ白山,石川県白山市宮丸町2183,36.50081252,136.5471069
北陸自動車道緊急避難場所,石川県白山市相川町地内　北陸自動車道166.52KP付近,36.5450179,136.5444399
金沢工業大学やつかほリサーチキャンパス65号館,石川県白山市八束穂三丁目1,36.4845392,136.5711511
旧美川図書館駐車場,石川県白山市美川永代町ヲ266-1,36.48774599,136.4840288
北陸信用金庫,石川県白山市美川神幸町ソ336-1,36.48799688,136.4884577
金沢工業大学白山麓キャンパスイノベーションハブ,石川県白山市瀬戸辰3-1,36.2896135,136.6505315
宮保防災コミュニティセンター,石川県白山市宮保町740-1,36.51417359,136.5349304
赤井地区広域働く婦人の家,石川県能美市赤井町は2-2,36.45577225,136.4855052
福岡小学校,石川県能美市福岡町ハ35,36.44803563,136.4752473
高坂・根上町学習等供用施設,石川県能美市高坂町ハ99-149,36.438737,136.449126
根上総合文化会館,石川県能美市大成町ヌ118,36.44713657,136.4635571
大浜町学習等供用施設,石川県能美市大浜町ク60-1,36.45750089,136.4567534
浜小学校,石川県能美市中町カ14,36.44801715,136.4581343
根上中央児童館,石川県能美市中町子88,36.44892192,136.4583547
根上中学校,石川県能美市浜町ワ60,36.44621201,136.4563377
根上勤労者体育センター,石川県能美市浜町ヨ15-3,36.44755835,136.4570082
道林町学習等供用施設,石川県能美市道林町ヘ106-15,36.44192109,136.4429462
山口町学習等供用施設,石川県能美市山口町ヘ114-1,36.43500397,136.4352136
寺井中学校,石川県能美市寺井町ラ161,36.44009867,136.4912758
寺井小学校,石川県能美市寺井町ヨ60,36.43598148,136.49771
寺井体育館,石川県能美市寺井町ヨ150,36.43645929,136.4970482
寺井地区公民館,石川県能美市寺井町ヨ47,36.43681702,136.4972712
寺井町学習等供用施設,石川県能美市寺井町ウ63-1,36.43869126,136.4914375
大長野町学習等供用施設,石川県能美市大長野町ニ177-1,36.42868034,136.4927825
湯野児童館,石川県能美市佐野町ラ70,36.43244504,136.5154928
泉台町コミュニティセンター,石川県能美市泉台町中192,36.43243435,136.5225304
泉台スポーツセンター,石川県能美市泉台町東11,36.43476387,136.5260323
湯野小学校,石川県能美市湯谷町へ3076,36.43446043,136.514197
粟生小学校,石川県能美市粟生町ロ45,36.45236106,136.5064547
三道山町コミュニティセンター,石川県能美市三道山町ト31-1,36.44676841,136.5063583
石川県立寺井高校,石川県能美市吉光町ト90,36.44689039,136.4964064
宮竹小学校,石川県能美市宮竹町イ153,36.45297186,136.5842239
岩内コミュニティセンター,石川県能美市岩内町ワ35,36.45346433,136.5663849
岩内体育館,石川県能美市岩内町イ164-1,36.45401266,136.5661617
物見山総合体育館,石川県能美市辰口町リ1,36.44784127,136.5476759
辰口福祉会館,石川県能美市辰口町ヌ10,36.44431207,136.5482103
辰口中学校,石川県能美市辰口町129,36.44829305,136.5473817
辰口中央小学校,石川県能美市辰口町735,36.44686652,136.5426264
松が岡コミュニティセンター,石川県能美市松が岡5丁目34,36.43916174,136.5307016
和光台コミュニティセンター,石川県能美市和光台3丁目110,36.42765653,136.5447511
道の駅「しらやまさん」,石川県能美市和佐谷町200,36.43678912,136.6305143
北陸先端科学技術大学院大学体育館,石川県能美市旭台1丁目35,36.4421333,136.5938833
和気小学校,石川県能美市和気町イ140,36.423612,136.549178
高坂公園,石川県能美市高坂町ニ50,36.43993963,136.4500663
道林寺公園,石川県能美市道林町ﾍ99-3,36.44166122,136.4434398
翠ヶ丘運動公園,石川県能美市山口町リ37,36.43504101,136.4335371
寺井山児童公園,石川県能美市寺井町や79,36.4433994,136.5024198
寺井第１街区公園,石川県能美市寺井町る13-6,36.44145791,136.5012687
寺井第２街区公園,石川県能美市寺井町リ24-2,36.44018656,136.4954751
岸山第２公園,石川県能美市佐野町巳49,36.43190713,136.5149855
泉台公園,石川県能美市泉台町南1-56,36.4275913,136.5169825
なかよし公園,石川県能美市泉台町中108,36.43251167,136.5233768
おおぞら公園,石川県能美市泉台町西38,36.43198802,136.5191741
湯谷第２公園,石川県能美市湯谷町へ37-24,36.43830979,136.5198522
湯谷第３公園,石川県能美市湯谷町へ61-10,36.4380379,136.5190422
湯野第１街区公園,石川県能美市湯谷町ト174-8,36.43432645,136.5156547
湯野第２街区公園,石川県能美市湯谷町ト68-4,36.435645,136.518133
湯の花公園,石川県能美市湯谷町乙27,36.43462493,136.5217089
中部児童公園,石川県能美市三道山町チ3,36.4458686,136.507003
ｻｲｴﾝｽﾊﾟｰｸ１号公園,石川県能美市旭台2-3,36.44733538,136.5898297
ｻｲｴﾝｽﾊﾟｰｸ緑道１号,石川県能美市旭台2-28,36.446178,136.590996
辰口運動公園,石川県能美市来丸町ワ42,36.44827406,136.5501466
和光台１号公園,石川県能美市和光台1-114,36.42617762,136.5431163
和光台２号公園,石川県能美市和光台3-112,36.42783076,136.5455034
和光台３号公園,石川県能美市和光台5-120,36.42954429,136.5426013
緑が丘１号公園,石川県能美市緑が丘1-9,36.44532492,136.5421783
緑が丘２号公園,石川県能美市緑が丘3-28,36.44293819,136.5414229
緑が丘３号公園,石川県能美市緑が丘5-7,36.44254195,136.5369471
緑が丘４号公園,石川県能美市緑が丘5-31-25,36.44643825,136.5390562
緑が丘５号公園,石川県能美市緑が丘8-53,36.43838304,136.5390742
緑が丘６号公園,石川県能美市緑が丘9-3,36.44174791,136.5379019
緑が丘７号公園,石川県能美市緑が丘10-1,36.43959141,136.5349436
緑が丘８号公園,石川県能美市緑が丘8-154,36.43615613,136.5339565
緑が丘９号公園,石川県能美市緑が丘11-55,36.44052615,136.5334603
松が岡１号公園,石川県能美市松が岡2-23,36.43822648,136.5251728
松が岡２号公園,石川県能美市松が岡5-19,36.43883176,136.5293514
自然ふれあい公園,石川県能美市松が岡3-90,36.43504188,136.5276215
こくぞう里山公園,石川県能美市和気町い21-1,36.4241174,136.5471237
ふるさと交流研修センター,石川県能美市石子町ハ147-1,36.43977556,136.5073955
野々市小学校体育館,石川県野々市市本町5-3-1,36.53225592,136.6097812
御園小学校体育館,石川県野々市市稲荷4-128,36.53759578,136.6039396
菅原小学校体育館,石川県野々市市菅原町20-1,36.52530483,136.6166625
富陽小学校体育館,石川県野々市市中林5-70,36.51292633,136.6039988
館野小学校体育館,石川県野々市市押野3-71,36.54044351,136.6165328
野々市中学校体育館,石川県野々市市三納3-1,36.5243884,136.607927
布水中学校体育館,石川県野々市市押野2-100,36.53864932,136.6120055
金沢工業大学第二体育館（20号館）,石川県野々市市扇が丘7-1,36.52763911,136.628228
石川県立大学体育館,石川県野々市市末松1-308,36.50734584,136.5970884
野々市明倫高校第1・第2体育館,石川県野々市市下林3-309,36.52620659,136.6008658
中島小学校,石川県能美郡川北町字中島ワ17番地,37.12158291,136.8426196
川北小学校,石川県能美郡川北町字壱ツ屋ヲ25番地1,36.4721786,136.5444871
川北中学校,石川県能美郡川北町字壱ツ屋チ82番地,36.47256064,136.5435244
橘小学校,石川県能美郡川北町字橘ソ68番地,36.47302603,136.5088984
東部地区学習等供用施設,石川県能美郡川北町字中島ワ128番地2,36.46497494,136.5848192
西部地区学習等供用施設,石川県能美郡川北町字橘ロ59番地1,36.47475267,136.5131021
東部地区児童館,石川県能美郡川北町字中島へ2番地1,36.46354156,136.5872872
川北町児童館,石川県能美郡川北町字土室丙129番地1,36.47313911,136.5452318
西部地区児童館,石川県能美郡川北町字橘平44番地,36.47303847,136.5096034
津幡小学校,石川県河北郡津幡町字清水リ123-3,36.67340658,136.7361653
太白台小学校,石川県河北郡津幡町字津幡ワ2,36.67286055,136.7482889
中条小学校,石川県河北郡津幡町字南中条ヘ81,36.65888461,136.7268319
条南小学校,石川県河北郡津幡町字太田ろ3,36.65405927,136.7178229
井上小学校,石川県河北郡津幡町井上の荘1-1,36.67177447,136.7201778
笠野小学校,石川県河北郡津幡町字山北ワ116,36.69310155,136.7771271
英田小学校,石川県河北郡津幡町字能瀬井36,36.69264972,136.7268723
刈安小学校,石川県河北郡津幡町字刈安イ1,36.6698028,136.7881718
萩野台小学校,石川県河北郡津幡町字七野イ75,36.65698158,136.7618277
向粟崎小学校,石川県河北郡内灘町字向粟崎２－３８２,36.63693012,136.6374789
清湖小学校,石川県河北郡内灘町字向陽台２－２９４他,36.64080359,136.634357
鶴ケ丘小学校,石川県河北郡内灘町字鶴ケ丘２－１６２,36.64372648,136.6416757
大根布小学校,石川県河北郡内灘町字大根布６－２他,36.64935586,136.6461113
西荒屋小学校,石川県河北郡内灘町字西荒屋ハ６－７,36.67895702,136.6674952
内灘中学校,石川県河北郡内灘町字鶴ケ丘２－３０８,36.64520232,136.6428668
石川県立内灘高等学校,石川県河北郡内灘町字千鳥台３－１,36.64178551,136.6289916
石川県立児童生活指導,石川県河北郡内灘町字大根布と５４３,36.65012224,136.6384768
向粟崎運動公園,石川県河北郡内灘町字向粟崎１－４１２－１他,36.63123402,136.635988
向粟崎都市緑地,石川県河北郡内灘町字向粟崎４－１６３－１,36.63086783,136.6290569
旭ケ丘公園,石川県河北郡内灘町字旭ケ丘２８２,36.63034994,136.6353729
緑台公園,石川県河北郡内灘町字緑台１－２７１,36.63369519,136.6296332
千鳥台公園,石川県河北郡内灘町字千鳥台１－４４,36.63467641,136.6263301
千鳥台第3公園,石川県河北郡内灘町字千鳥台２－３６０－１,36.64471937,136.634283
はまちどり公園,石川県河北郡内灘町字千鳥台４－１４２,36.63839076,136.6254548
向陽台公園,石川県河北郡内灘町字向陽台１－１４０,36.63761766,136.6335265
鶴ケ丘東公園,石川県河北郡内灘町字鶴ケ丘２－１６０－１他,36.64292214,136.6428136
内灘町総合グラウンド,石川県河北郡内灘町字鶴ケ丘２－７４３,36.64481436,136.6455778
鶴ケ丘第1児童公園,石川県河北郡内灘町字鶴ケ丘４－８５,36.64117241,136.6363007
鶴ケ丘第2児童公園,石川県河北郡内灘町字鶴ケ丘４－１－１８６,36.64408987,136.6376411
鶴ケ丘第3児童公園,石川県河北郡内灘町字鶴ケ丘５－１－１９２,36.64763429,136.6404923
鶴ケ丘中央公園,石川県河北郡内灘町字鶴ケ丘５－１－４４,36.64574048,136.6395189
大清台公園,石川県河北郡内灘町字大清台１３９－１,36.6511161,136.643164
大根布児童公園,石川県河北郡内灘町字大根布７－６２他,36.65079255,136.6455915
大学第3公園,石川県河北郡内灘町字大学１－４－１他,36.65886399,136.6492994
大学第2児童公園,石川県河北郡内灘町字大学２－１１９,36.65485101,136.6488541
ハマナス児童公園,石川県河北郡内灘町字ハマナス２－１４０,36.65829458,136.6453644
ハマナス恐竜公園,石川県河北郡内灘町字ハマナス２－１８５,36.65549732,136.6442164
勤労者体育センターに,石川県河北郡内灘町字宮坂４字１－１,36.66560093,136.6569021
内灘町総合公園,石川県河北郡内灘町字宮坂に４５９他,36.66511434,136.6529592
白帆台第2公園,石川県河北郡内灘町白帆台１－４８５,36.67055681,136.6557444
白帆台第3公園,石川県河北郡内灘町白帆台２－５８９,36.67337933,136.6578258
白帆台第4公園,石川県河北郡内灘町白帆台２－５９０,36.67641257,136.6608674
西荒屋児童公園,石川県河北郡内灘町字西荒屋ロ１００１－４他,36.68471571,136.6714862
室児童公園,石川県河北郡内灘町字室ニ３０－４他,36.68643646,136.6732082
白帆台小学校,石川県河北郡内灘町白帆台２－１６８,36.67495517,136.6578772
志賀町文化ホール,石川県羽咋郡志賀町高浜町カの１番地１,37.01034576,136.7752772
志賀町保健福祉センター,石川県羽咋郡志賀町高浜町カの１番地１,37.01053552,136.7749344
志賀高等学校,石川県羽咋郡志賀町高浜町ノ170番地,37.00133598,136.7716269
志賀町総合武道館,石川県羽咋郡志賀町町ヘ１の１番地,37.02474115,136.7634534
地域交流センター,石川県羽咋郡志賀町西山台一丁目１番地,37.00719505,136.7996109
旧土田小学校,石川県羽咋郡志賀町仏木マの４番地,37.05491785,136.8244237
旧下甘田保育園,石川県羽咋郡志賀町二所宮ノの59番地２,36.98413046,136.8081172
旧福浦小学校,石川県羽咋郡志賀町福浦港４の４番地２,37.07745923,136.7235088
富来活性化センター,石川県羽咋郡志賀町富来領家町甲の10番地,37.14416343,136.7253761
富来中学校,石川県羽咋郡志賀町富来領家町ハの１番地,37.14477403,136.7288514
富来防災センター,石川県羽咋郡志賀町富来高田２の41番地,37.14378776,136.734205
稗造防災センター,石川県羽咋郡志賀町今田2の15番地,37.16665804,136.7827656
富来小学校,石川県羽咋郡志賀町相神にの80番地,37.15634857,136.7176138
西浦防災センター,石川県羽咋郡志賀町鹿頭との122番地１,37.1797715,136.6830794
押水第一小学校体育館,宝達志水町冬野ヲ2番地,36.7977793,136.7496007
押水第一小学校運動場,宝達志水町冬野ヲ2番地,36.79795542,136.7502659
宝達志水広域勤労青少年ホーム,宝達志水町北川尻ミ1番地15,36.80699061,136.7499232
宝達志水サッカー場,宝達志水町北川尻ミ1番地15,36.80667277,136.751039
宝達小学校体育館,宝達志水町上田キ50番地,36.8123812,136.7739159
宝達小学校運動場,宝達志水町上田キ50番地,36.81270107,136.7743425
宝達志水町民センター,宝達志水町門前サ11番地,36.81631662,136.7640626
宝達志水町民センター駐車場,宝達志水町門前サ11番地,36.81608471,136.7637193
産業センター,宝達志水町河原ト120番地,36.81800926,136.7671552
産業センター駐車場,宝達志水町河原ト120番地,36.81789761,136.7679384
山村広場,宝達志水町河原ト120番地,36.8174381,136.7677936
宝達中学校体育館,宝達志水町小川カ150番地,36.81897724,136.755628
宝達中学校運動場,宝達志水町小川カ150番地,36.81804634,136.7565118
相見小学校体育館,宝達志水町麦生ト133番地,36.8300318,136.7544602
相見小学校運動場,宝達志水町麦生ト133番地,36.83037959,136.7542349
相見保育所プレイルーム,宝達志水町今浜えびすが丘31番地,36.82548621,136.7531589
宝達高等学校第１体育館,宝達志水町今浜ト80番地,36.82428608,136.7610165
宝達高等学校第２体育館,宝達志水町今浜ト80番地,36.8247364,136.7610076
宝達高等学校運動場,宝達志水町今浜ト80番地,36.82488678,136.7601587
宝達志水総合体育館,宝達志水町今浜イ4番地1,36.82648444,136.7503606
宝達志水武道館,宝達志水町今浜イ4番地1,36.82767386,136.7500601
宝達志水多目的グラウンド,宝達志水町今浜イ4番地1,36.8269396,136.7493789
宝達志水グラウンドゴルフ場,宝達志水町今浜イ4番地1,36.82670343,136.7483972
やわらぎの郷,宝達志水町敷浪５号1番地,36.84906802,136.7657365
白虎山公園軽スポーツセンター,宝達志水町敷波ロ44番地,36.85539478,136.7731192
白虎山公園簡易野球場,宝達志水町敷波ロ44番地,36.85659234,136.7747661
樋川小学校体育館,宝達志水町荻島に30番地,36.85675329,136.7772053
樋川小学校運動場,宝達志水町荻島に30番地,36.85609227,136.7776077
南部保育所遊戯室,宝達志水町荻島に11番地1,36.85715195,136.7778961
志雄小学校体育館,宝達志水町子浦ツ18番地,36.86220381,136.7929012
志雄小学校運動場,宝達志水町子浦ツ18番地,36.86192913,136.793502
生涯学習センター,宝達志水町子浦そ18番地1,36.86242613,136.7970469
宝達志水野球場,宝達志水町吉野屋ヲ156番地,36.85982026,136.8060775
宝達志水多目的運動広場,宝達志水町吉野屋ヲ156番地,36.85929663,136.8074776
中能登町立こすもす保育園,中能登町良川た部３番地,36.981568,136.896421
中能登町立たんぽぽ保育園,中能登町春木３部１８番地１,37.00134782,136.9041721
中能登町社会福祉センター,中能登町末坂９部４３番地,36.9889477,136.9021668
保健センター「すくすく」,中能登町末坂２部５７番地１,36.99138001,136.9034617
ふるさと創修館,中能登町一青こ部１９番地１,36.98791356,136.8995887
ラポールよしかわ,中能登町良川ち部１５番地,36.97752471,136.8895849
中能登町立つくし保育園,中能登町水白１９部１番地１,36.95779604,136.893726
中能登町立あおば保育園,中能登町二宮カ部５８番地,36.98207299,136.9267382
ディサービスセンター「いこい」,中能登町東馬場ほ部１８番地１,36.96607478,136.894599
ふれあい交流館「北部」,中能登町坪川リ部２３番地,36.999513,136.921181
農村環境改善センター「パルみおや」,中能登町福田フ部１１１番地１,36.941967,136.870064
生涯学習センター「ラピア鹿島」,中能登町井田に部５０番地,36.968668,136.911161
鹿島体育センター,中能登町井田い部３４番地,36.966194,136.916552
石川県立鹿西高等学校,中能登町能登部上ヲ部1番地,36.96351801,136.8710463
鹿西体育館,中能登町能登部下９１部２３番地,36.96158188,136.867222
中能登町立さくら保育園,中能登町能登部下４６部１番地１,36.957404,136.866285
カルチャーセンター飛翔,中能登町能登部下１３４部１番地,36.95554606,136.8651165
かねまる交流館,中能登町金丸９３２番地,36.94724489,136.842209
中能登中学校,中能登町良川け部１番地１,36.97313,136.889174
（旧）鳥屋中学校グラウンド,中能登町一青人3部16番地,36.988186,136.896129
鹿西高等学校グラウンド,中能登町能登部上ヲ部1番地,36.963753,136.872565
（旧）鹿西中学校グラウンド,中能登町能登部下92部24番地,36.96078687,136.8672201
金丸多目的広場,中能登町金丸931番地,36.946934,136.842528
アッピー鹿西多目的広場,中能登町能登部下１３４部１番地,36.95524806,136.866337
古墳公園とりや,中能登町川田ホ部42番地,37.013721,136.913999
中能登町運動公園,中能登町東馬場そ部11番地,36.970399,136.88877
レクトピアパーク,中能登町井田ほ部25番地,36.96767758,136.9106559
道の駅「織姫の里なかのと」,中能登町井田ぬ部10番地1,36.970097,136.904603
老人福祉センターゆうゆう,中能登町末坂２部３７番１地,36.99175028,136.9036785
特別養護老人ホーム「鹿寿苑」,中能登町西馬場エ部５６番地,36.97037,136.887419
ウワノの畑農道,石川県鳳珠郡穴水町字曽福地内,37.17377433,136.8911799
真浄寺境内,石川県鳳珠郡穴水町字曽福ト-11,37.17676659,136.8950389
うわの,石川県鳳珠郡穴水町字鹿島地内,37.18343972,136.8993376
そんでら,石川県鳳珠郡穴水町字鹿島地内,37.1851065,136.9020896
中宅横,石川県鳳珠郡穴水町字根木カ-18,37.19272692,136.9061354
白山神社境内,石川県鳳珠郡穴水町字,37.19252312,136.9085735
細川宅裏高台,石川県鳳珠郡穴水町字根木地内,37.19408903,136.9097005
第三望洋台高台,石川県鳳珠郡穴水町字根木地内,37.19650338,136.9093036
朱鷺の苑地域交流センター,石川県鳳珠郡穴水町字志ヶ浦15-1-3,37.20212795,136.8981504
ハゲヤマ１（地区裏高台）,石川県鳳珠郡穴水町字志ヶ浦地内,37.20402553,136.9098925
畑中宅裏高台,石川県鳳珠郡穴水町字志ヶ浦地内,37.20401272,136.9101661
ハゲヤマ2（地区裏高台）,石川県鳳珠郡穴水町字志ヶ浦地内,37.20261126,136.9128912
村上倉庫,石川県鳳珠郡穴水町字新崎,37.20713846,136.9242029
宮の上,石川県鳳珠郡穴水町字新崎,37.20451937,136.9259517
高宅横駐車場,石川県鳳珠郡穴水町字乙ヶ崎,37.21514473,136.9063593
明楽寺境内,石川県鳳珠郡穴水町字乙ヶ崎ホ-72,37.2196858,136.9064397
火宮神社境内,石川県鳳珠郡穴水町字乙ヶ崎,37.22071102,136.907062
上野（下谷地裏高台）,石川県鳳珠郡穴水町字乙ヶ崎,37.22201817,136.9099695
上野（六平坂）,石川県鳳珠郡穴水町字鵜島,37.22265464,136.9106669
菅原神社境内,石川県鳳珠郡穴水町字鵜島,37.22286529,136.9087506
上野（地区裏高台）,石川県鳳珠郡穴水町字鵜島,37.22355302,136.908359
上野（学会高台）,石川県鳳珠郡穴水町字鵜島,37.22232279,136.9081927
弘誓寺境内,石川県鳳珠郡穴水町字大町ヘ-17,37.22609001,136.9058241
穴水小学校,石川県鳳珠郡穴水町字大町ロ-165-1,37.22734852,136.9076709
スタークイーン穴水,石川県鳳珠郡穴水町字大町チ-24-4,37.22871016,136.904239
穴水中学校,石川県鳳珠郡穴水町字大町ヌ-201,37.23038876,136.8998187
おおぞら農協共同組合（JA会館）,石川県鳳珠郡穴水町字大町ほ-95,37.2317084,136.9031534
やすらぎマンション,石川県鳳珠郡穴水町字川島サ-66,37.23037602,136.909066
白山神社境内,石川県鳳珠郡穴水町字川島ホ-23,37.19252312,136.9085735
川島寺,石川県鳳珠郡穴水町字川島,37.231305,136.91232
金刀比羅神社境内,石川県鳳珠郡穴水町字川島,37.23539714,136.9052225
瑞源寺境内,石川県鳳珠郡穴水町字川島タ-7,37.23471796,136.9091428
公立穴水総合病院,石川県鳳珠郡穴水町字川島タ-5,37.23352043,136.9096255
穴水町役場,石川県鳳珠郡穴水町字川島ラ-174,37.23095626,136.9123931
穴水町地域情報センター,石川県鳳珠郡穴水町字川島ラ-174,37.23103741,136.9129295
穴水町城址公園,石川県鳳珠郡穴水町字川島地内,37.23005299,136.9143724
穴水町林業資材置場駐車場,石川県鳳珠郡穴水町字川島地内,37.22864775,136.915177
町営相撲場下駐車場,石川県鳳珠郡穴水町字由比ヶ丘,37.2268649,136.9197699
穴水町町営相撲場,石川県鳳珠郡穴水町字由比ヶ丘,37.22724933,136.9204941
沖の崎神社境内,石川県鳳珠郡穴水町字内浦,37.22126062,136.9261374
浜崎宅裏高台,石川県鳳珠郡穴水町字麦ヶ浦,37.23184519,136.9264861
八坂神社境内,石川県鳳珠郡穴水町字麦ヶ浦,37.23058093,136.9290288
中島鮮魚店裏高台,石川県鳳珠郡穴水町字中居レ85,37.23750988,136.9406815
中島鮮魚店・米田酒屋間駐車場,石川県鳳珠郡穴水町字,37.23771488,136.9411536
下出集会所,石川県鳳珠郡穴水町字下出,37.23934657,136.9434503
集会所横の坂,石川県鳳珠郡穴水町字下出,37.23924404,136.9438794
慶楽寺境内,石川県鳳珠郡穴水町字中居196,37.23448334,136.9431144
西蓮寺境内,石川県鳳珠郡穴水町字中居ヨ3,37.2314936,136.942696
神杉神社境内,石川県鳳珠郡穴水町字中居26-100,37.23042087,136.9458808
中居地区活性化施設,石川県鳳珠郡穴水町字中居南1-157,37.22862268,136.9446523
大龍寺境内,石川県鳳珠郡穴水町字中居南2-31,37.2263215,136.9437642
向洋小学校,石川県鳳珠郡穴水町字比良イ24,37.23447434,136.9514759
タカホシバ,石川県鳳珠郡穴水町字比良,37.23679832,136.9607677
真龍寺境内,石川県鳳珠郡穴水町字比良リ17,37.23750748,136.9607878
光宗寺境内,石川県鳳珠郡穴水町字比良リ35乙,37.23870489,136.9621775
法栄寺境内,石川県鳳珠郡穴水町字比良リ36,37.23867499,136.9626656
オオミチ,石川県鳳珠郡穴水町字比良,37.2413954,136.9669142
トラワニ,石川県鳳珠郡穴水町字比良,37.23588009,136.9659981
神明神社境内,石川県鳳珠郡穴水町字川尻,37.23231174,136.9707321
倉庫の高,石川県鳳珠郡穴水町字川尻,37.23152586,136.9659041
ハタケダ,石川県鳳珠郡穴水町字川尻,37.23264916,136.9766088
岩本太朗左右衛門の高,石川県鳳珠郡穴水町字岩車,37.21921078,136.9558665
岩車バス停,石川県鳳珠郡穴水町字岩車,37.21712183,136.9565264
聖徳寺境内,石川県鳳珠郡穴水町字岩車チ-43,37.21617345,136.9578782
奈古司神社境内,石川県鳳珠郡穴水町字岩車,37.21493456,136.9596163
村田宅前道路広場,石川県鳳珠郡穴水町字岩車,37.20916277,136.961762
民宿つばき荘,石川県鳳珠郡穴水町字岩車9-10-87,37.20910082,136.9679687
足湯温泉広場,石川県鳳珠郡穴水町字岩車11-19-10,37.20224781,136.970042
二社谷台地,石川県鳳珠郡穴水町字鹿波,37.20423402,136.9841243
妙覚寺境内,石川県鳳珠郡穴水町字鹿波55-44,37.20321285,136.9855996
鹿波白山神社境内,石川県鳳珠郡穴水町字鹿波,37.2032513,136.9868119
旧鹿波小学校,石川県鳳珠郡穴水町字鹿波,37.20235829,136.9881208
シャクガイ台地,石川県鳳珠郡穴水町字鹿波,37.20105508,136.9894405
宮坂,石川県鳳珠郡穴水町字曽良,37.18648241,137.0129083
千手院,石川県鳳珠郡穴水町字曽良リ-106,37.18865555,137.0165561
円山,石川県鳳珠郡穴水町字曽良,37.18886068,137.0140831
曽良神社境内,石川県鳳珠郡穴水町字曽良,37.19186493,137.0151023
曽良集会所,石川県鳳珠郡穴水町字曽良,37.19179869,137.0197157
堂の上,石川県鳳珠郡穴水町字曽良,37.19115768,137.0222531
農村公園,石川県鳳珠郡穴水町字曽良,37.1955079,137.0225025
旧兜小学校,石川県鳳珠郡穴水町字甲,37.19451248,137.0234528
大甲開田,石川県鳳珠郡穴水町字甲,37.19635849,137.0278677
小甲開田,石川県鳳珠郡穴水町字甲,37.20041786,137.0253947
泊の坂,石川県鳳珠郡穴水町字甲,37.20229791,137.0243755
宮古の坂,石川県鳳珠郡穴水町字甲,37.20165698,137.0217791
家の高,石川県鳳珠郡穴水町字甲,37.20546825,137.0214787
阿曽良上野,石川県鳳珠郡穴水町字甲,37.20749341,137.0245149
阿曽良丸山,石川県鳳珠郡穴水町字甲,37.20687817,137.0266392
黒崎丸山,石川県鳳珠郡穴水町字甲,37.20615183,137.0293966
専順寺境内,石川県鳳珠郡穴水町字甲子5,37.20845899,137.0319232
長沢の高,石川県鳳珠郡穴水町字沖波,37.21007392,137.0456454
諏訪神社階段,石川県鳳珠郡穴水町字沖波,37.21127871,137.0487138
西野の高,石川県鳳珠郡穴水町字沖波,37.2137575,137.0513449
経塚,石川県鳳珠郡穴水町字沖波,37.21456066,137.0562963
神主様高,石川県鳳珠郡穴水町字沖波,37.21397965,137.0583401
諸口宅裏高台,石川県鳳珠郡穴水町字沖波,37.21415053,137.058941
マヘ（林宅）高,石川県鳳珠郡穴水町字沖波,37.21405227,137.0615588
マラバタケ又はエンキョウの高,石川県鳳珠郡穴水町字前波,37.21522283,137.0625244
ウワノ,石川県鳳珠郡穴水町字前波,37.21606869,137.0642947
ジョウジャン高,石川県鳳珠郡穴水町字前波,37.21764077,137.0655928
エンヤマ,石川県鳳珠郡穴水町字前波,37.22053281,137.0667945
ショウモッコ,石川県鳳珠郡穴水町字宇加川,37.22178015,137.0656894
丸山,石川県鳳珠郡穴水町字宇加川,37.22570573,137.0636938
第１避難場所（上野）,石川県鳳珠郡穴水町字宇加川,37.22726907,137.0655607
明泉寺,石川県鳳珠郡穴水町字明千寺ル18-1,37.23024189,137.0571707
花園（旧倉谷宅前）,石川県鳳珠郡穴水町字古君,37.2353188,137.0706832
あいぞめ橋,石川県鳳珠郡穴水町字古君,37.2452395,137.0720833
古君和田出一雄宅裏の高台,石川県鳳珠郡穴水町字古君,37.2412765,137.0730436
住吉神社お仮屋,石川県鳳珠郡穴水町字竹太,37.25187534,137.0705545
住吉神社境内,石川県鳳珠郡穴水町字竹太,37.24858311,137.0736444
県道穴水・鵜川境高台,,37.24709672,137.0807851
乙ヶ先集会所,石川県鳳珠郡穴水町字乙ヶ崎ホ-44,37.22062619,136.9073662
歴史民俗資料館,石川県鳳珠郡穴水町字川島ウ25,37.22805609,136.9159037
穴水町B&G海洋センター,石川県鳳珠郡穴水町字大町ロ19,37.22757722,136.9081266
穴水町林業センター,石川県鳳珠郡穴水町字川島サ-29,37.23110579,136.9099888
来迎寺地区集会所,石川県鳳珠郡穴水町字大町ヨ-191,37.22627199,136.8942806
由比ヶ丘地区集会所,石川県鳳珠郡穴水町字由比ヶ丘,37.2329206,136.9212246
由比ヶ丘会館,石川県鳳珠郡穴水町字由比ヶ丘は-2-9,37.23120789,136.9203288
穴水町生涯現役センター体育館,石川県鳳珠郡穴水町字由比ヶ丘ろ-11,37.23033911,136.9224214
キャッスル真名井,石川県鳳珠郡穴水町字川島井61-1,37.22290833,136.9179979
此木地区集会所,石川県鳳珠郡穴水町字此木10-70-4,37.2440349,136.9008096
のとふれあい文化センター,石川県鳳珠郡穴水町字内浦5-28-3,37.223063,136.9220064
穴水町老人保健施設,石川県鳳珠郡穴水町字川島タ38,37.23335016,136.9101577
上中集会所,石川県鳳珠郡穴水町字上中7-60,37.24034115,136.8175326
宇留地地区集会所,石川県鳳珠郡穴水町字宇留地ツ101-1,37.23034585,136.8794875
穴水町あすなろ広場,石川県鳳珠郡穴水町字川島ツ172-1,37.22654734,136.9131699
志ヶ浦コミュニティーセンター,石川県鳳珠郡穴水町字志ヶ浦い36,37.20404192,136.9075642
島崎地区集会所,石川県鳳珠郡穴水町字根木イ103,37.19646488,136.9090345
鹿島地区コミュニティーセンター,石川県鳳珠郡穴水町字鹿島い33-1,37.1847984,136.8989106
能登中居鋳物館,石川県鳳珠郡穴水町字中居ロ100,37.23233975,136.9464789
住吉農村環境改善センター,石川県鳳珠郡穴水町字中居ロ100,37.23216891,136.9462697
中居地区活性化施設,石川県鳳珠郡穴水町字中居南1字157,37.22862268,136.9446523
旧向洋中学校,石川県鳳珠郡穴水町字比良い50,37.23447074,136.9667142
比良地区集会所,石川県鳳珠郡穴水町字比良キ3甲-1,37.23712368,136.9629243
岩車集会所,石川県鳳珠郡穴水町字岩車チ141,37.21629366,136.9542456
梶・波志借集会所,石川県鳳珠郡穴水町字波志借ロ11,37.24253017,136.9405008
瑞鳳集会所,石川県鳳珠郡穴水町字瑞鳳い58,37.24870363,136.9537554
藤巻集会所,石川県鳳珠郡穴水町字藤巻リ30,37.27677352,136.9562621
伊久留集会所,石川県鳳珠郡穴水町字伊久留ヨ6,37.27807614,136.981397
甲地区生涯学習センター,石川県鳳珠郡穴水町字甲レ155,37.20584861,137.024794
山中集会所,石川県鳳珠郡穴水町字山中ル15,37.23349967,137.0128843
沖波集会所,石川県鳳珠郡穴水町字沖波ホ338,37.20888204,137.0569437
前波集会所,石川県鳳珠郡穴水町字前波ホ177-1,37.2193794,137.0675428
宇加川集会所,石川県鳳珠郡穴水町字宇加川ル61,37.22546022,137.0669828
諸橋公民館,石川県鳳珠郡穴水町字宇加川イ142,37.22470561,137.0657575
古君地区集会所,石川県鳳珠郡穴水町字古君ハ183-1,37.23582318,137.0716533
恋路集会所周辺,能登町字恋路6-22付近,37.36910802,137.2409092
ラブロ恋路駐車場,能登町字恋路3-18,37.36781806,137.2440898
松岡寺駐車場,能登町字松波3-80,37.35787149,137.242703
石川県立能登産業技術専門校,能登町字松波3-60-3,37.358513,137.240845
松波城址公園,能登町字松波3付近,37.35518454,137.2397821
松波公民館,能登町字松波13字75番地1,37.353506,137.244958
御坊山（平尻町）,能登町字松波12付近,37.35223024,137.2482996
松波キッズセンター,能登町字松波13字50番地の2,37.352641,137.245068
光明院,能登町字上23-28,37.347338,137.214088
もちの木団地周辺,能登町字布浦ヌ23付近,37.35139901,137.2545796
赤崎コミュニティセンター周辺,能登町字布浦ニ字36-1,37.35287642,137.2635312
能登自動車学校横交差点,能登町字布浦タ付近,37.34947323,137.2499372
松波小学校,能登町字松波15-80,37.34968255,137.2446562
松波中学校,能登町字松波16-26,37.34676635,137.2450865
比那神社周辺,能登町字布浦ム付近,37.34600214,137.2588802
白山神社周辺高台,能登町字布浦オ付近,37.34391588,137.2484784
内浦体育館,能登町字布浦拓20-1,37.34188473,137.2515406
火葬場跡地周辺,能登町字九里川尻付近,37.33474926,137.2476996
秋吉公民館,能登町字秋吉7字57番地,37.333084,137.238579
立壁・四方山台地,能登町字立壁1付近,37.33961522,137.2647799
遍照寺周辺,能登町字白丸5-72,37.33085311,137.2607766
菅原神社周辺,能登町字白丸9付近,37.32914172,137.2567758
白丸コミュニティ施設周辺,能登町字白丸2-17,37.32687591,137.2638718
内浦長尾台地,能登町字内浦長尾7付近,37.32316178,137.2557243
五色ヶ浜周辺高台,能登町字新保6-19,37.31615617,137.2472286
新保大山周辺,能登町字新保０付近,37.31409742,137.2433113
弥勒院,能登町字宮犬16-33-甲,37.339039,137.226281
不動寺公民館,能登町字不動寺8字200番地1,37.337608,137.209746
越坂、越坂口バス停周辺,能登町字新保6付近,37.30752062,137.2415676
新保集会所周辺,能登町字新保1付近,37.31017454,137.2471359
吹上登り口周辺,能登町字新保12付近,37.31429794,137.2333469
能登勤労者プラザ,能登町字越坂11-51,37.31208411,137.2347859
小木浄化センター周辺,能登町字小木十字5-1,37.3065843,137.2246096
高瀬台地,能登町字小木1付近,37.30329446,137.2248761
日和山公園,能登町字小木十九-7付近,37.30176691,137.2352834
小木中学校,能登町字小木1-1-1,37.30420346,137.2233802
小木姫トンネル交差点,能登町字小木四周辺,37.30262756,137.2185311
小木地域交流センター,能登町字小木15-30-1,37.30063454,137.2239735
小木小学校,能登町字小木4-16,37.29907298,137.2238365
犬山灯台周辺,能登町字小木十三付近,37.29802412,137.23093
法融寺周辺,能登町字小木十-100,37.29843763,137.2281323
石川県漁協協同組合小木漁協無線局周辺,能登町字小木八-48,37.29719803,137.2240531
姫上野台地,能登町字姫2付近,37.29803444,137.2124499
姫交流センター,能登町字姫10-250,37.29641384,137.2125501
高倉公民館,能登町字姫12-36,37.30219382,137.208576
旧真脇小学校,能登町字真脇33-25,37.3065092,137.2049817
真脇集会所周辺,能登町字真脇43-24,37.30368254,137.2032329
旧鉄道小浦駅周辺,能登町字小浦7-30,37.30176476,137.1927768
小浦崎山,能登町字小浦12付近,37.3015258,137.1845907
旧鉄道羽根駅周辺,能登町字羽根8付近,37.30196959,137.1743662
遠島山公園,能登町字宇出津イ112付近,37.30130391,137.1600324
老人憩いの家たなぎ荘,能登町字宇出津ウ字10-1,37.30300833,137.1611738
しらさぎ保育所,能登町字宇出津二字22,37.30916698,137.1529173
万寿山公園,能登町字宇出津へ108付近,37.30969002,137.150472
こどもみらいセンター,能登町字宇出津タ字46-1,37.30873163,137.1486516
公立宇出津総合病院,能登町字宇出津タ-97,37.30849855,137.1470149
錦町周辺,能登町字宇出津イ-5付近,37.30838175,137.1451969
宇出津港いやさか広場,能登町字宇出津新1字197-1,37.3065883,137.149947
コンセールのと,能登町字宇出津ト字29-2,37.3102002,137.1482969
宇出津小学校,能登町字宇出津ム字1,37.30634878,137.1462575
能都体育館,能登町字崎山1-1,37.30313148,137.1484408
ひばり保育所（仮設園舎）,能登町字崎山4丁目1番地,37.30240426,137.1484002
崎山台地,能登町字崎山4,37.30235995,137.1483294
崎山山村開発センター,能登町字崎山1-1,37.30280964,137.1486845
能都中学校,能登町字藤波14-35,37.30224886,137.1440884
石川県立能登高等学校,能登町字宇出津マ字106番地7,37.29901,137.150613
農免道路（藤波～鵜川）,能登町字藤波～鵜川,37.29836781,137.1387267
藤波台運動公園,能登町字藤波23-1-1,37.2946894,137.1334465
三波公民館,能登町字波並3-113,37.28911378,137.1170057
旧三波小学校,能登町字波並21-2-1,37.28571617,137.1122317
新開農地周辺,能登町字矢波4周辺,37.27457123,137.0945076
能都七見健康福祉の郷なごみ,能登町字七見ツ字100,37.2663322,137.0937513
旧鵜川小学校跡,能登町字鵜川29-1,37.25612676,137.088363
鵜川小学校,能登町字鵜川25-28,37.25710249,137.0828868
鵜川保育所,能登町字鵜川20-24,37.25439669,137.0838147
浄覚寺周辺,能登町字鵜川17-35周辺,37.25352867,137.0827581
鵜川公民館,能登町字鵜川18-128,37.25325948,137.0851885
神野公民館,能登町字鶴町11-13-1,37.31597369,137.0839256
旧瑞穂小中学校跡,能登町字瑞穂10-120,37.28118893,137.0408434
瑞穂公民館,能登町字瑞穂10-166,37.28042564,137.0405762
洞雲寺,能登町字瑞穂14-29,37.28115,137.05206
最安寺,能登町字瑞穂5-91,37.285567,137.042858
長龍寺,能登町字山田11-51,37.301451,137.028899
上長尾集会所,能登町字上長尾ル2,37.39390203,137.1101048
小間生公民館,能登町字小間生梅部89番地1,37.38183671,137.1155733
鈴ヶ嶺集会所,能登町字鈴ヶ嶺へ-29,37.37540609,137.1108486
鴨川集会所,能登町字鴨川ワ20-1,37.38232763,137.1035985
国光集会所,能登町字国光ル65-1,37.37534334,137.1015512
石井集会所,能登町字石井リ-3,37.36974668,137.1002544
笹川集会所,能登町字笹川井-20,37.36328648,137.1021795
柳田小学校,能登町字柳田礼部2-1,37.36632131,137.0958373
柳田保育所,能登町字柳田ロ部245-1,37.37330135,137.0873463
重年集会所,能登町字柳田3-26-1,37.37483448,137.0766487
五十里集会所,能登町字五十里ウ77,37.37407827,137.0538273
柳田中学校,能登町字柳田礼部3,37.36582674,137.0925811
柳田体育館,能登町字柳田梅部55,37.36869876,137.092325
柳田公民館,能登町字柳田仁部54,37.36882596,137.096059
上町公民館,能登町字上町8-505,37.3507301,137.1088021
旧上町保育所グラウンド,能登町字天坂い部65,37.35369465,137.1054506
上町公民館合鹿分館,能登町字合鹿28字65番地,37.345803,137.137291
岩井戸公民館,能登町字黒川26-11,37.36489375,137.0395233
長福寺跡,能登町字柳田ユ23,37.371832,137.06037
本両寺,能登町字小間生ル14,37.380096,137.114879
願成寺,能登町字上長尾ト42,37.393967,137.108108
能登町多目的交流センター,能登町字藤ノ瀬二字29番1地,37.327186,137.116836
能登町ハーモニーセンター,能登町字宇出津ウ字13番地2,37.302234,137.161626
本木地区集会所,能登町字本木28字33番地３,37.279904,137.018955
矢波地区集会所,能登町字矢波25字32番地４,37.276041,137.096629
藤ノ瀬地区集会所,能登町字藤ノ瀬３字110番地７,37.326135,137.104658
城野町地区集会所,能登町字宇出津山分５字26番地,37.30662,137.156836
七見地区集会所,能登町字七見７字７番地,37.262676,137.089728
柿生地区集会所,能登町字柿生地４字12番地１,37.269385,137.057946
間島集会所,能登町字藤波27字115番地１,37.29223131,137.1296641
辺田の浜地区集会所,能登町字藤波ノ字66番地,37.300574,137.146187
宮地生活改善センター,能登町字宮地１字17番地１,37.304218,137.018522
大平地区集会所,能登町字宇出津山分25字218番地,37.318107,137.142714
宇加塚集落センター,能登町字宇加塚２字82番地２,37.311175,137.099709
猪平地区集会所,能登町字猪平53字１番地,37.29757417,137.0798901
羽根地区集会所,能登町字羽根８字７番地,37.301029,137.173794
鮭尾多目的集会所,能登町字鮭尾６字（下代）220番地,37.30337506,137.0047707
源平多目的集会所,能登町字宇出津山分17字68番地,37.32701,137.157842
柏木多目的集会所,能登町字柏木69番地,37.308551,136.975904
曽又多目的集会所,能登町字曽又７字158番地８,37.322363,137.077155
漆原多目的集会所,能登町字宇出津ヌ字８番地７,37.31405,137.14777
小浦地区集会所,能登町字小浦10字28番地１,37.300354,137.18841
太田原地区集会所,能登町字太田原16字19の乙,37.32432266,136.9892872
爼倉地区集会所,能登町字爼倉44番地,37.298077,137.054603
田町地区集会所,能登町字宇出津ラ字23番地,37.304767,137.147138
当目多目的研修センター,能登町字当目38字153番地,37.353524,137.010164
十郎原地区集落センター,能登町字十郎原ワ部50番地,37.355966,137.052331
寺五地区生活改善センター,能登町字五郎左エ門分竹部20番地２,37.346551,137.088863
久田農業集会所,能登町字久田21字49番地,37.366662,137.120338
大箱集会所,能登町字大箱１字65番地,37.368164,137.025085
天坂集会所,能登町字天坂い部75番地,37.353327,137.104944
北河内集会所,能登町字北河内タ部55番地,37.381804,137.025139
中ノ又集会所,能登町字上町り部123番地１,37.340422,137.121361
河ヶ谷集会所,能登町字河ヶ谷３字19番地乙,37.323034,137.237874
宮犬地区生活改善センター,能登町字宮犬12字43番地,37.340498,137.225259
木住多目的集会所,能登町字山田１住字45番地,37.287552,137.033994
斉和多目的集会所,能登町字中斉ア字77番地,37.339832,137.060525
野田コミュニティセンター,能登町字柳田梅部35番地１,37.36966,137.093215
下市之瀬集会場,能登町字市之瀬１字57番地３,37.310896,137.22827
四明ヶ丘集会所,能登町字藤波ノ字55番地70,37.305004,137.141701
程谷集会所,能登町字時長55字16番地,37.327342,137.199174
日詰脇集会所,能登町字柳田井部107番地,37.377465,137.077217
立壁集会所,能登町字立壁１字122番地,37.339532,137.265044
内浦長尾集会所,能登町字内浦長尾65番地,37.32333021,137.25577
比那集会所,能登町字布浦ム字50番地1,37.3466797,137.2607031
旧内浦クリーンセンター車庫棟前,能登町字越坂13字6番地1,37.316532,137.234852
